{"type": "FeatureCollection", "properties": {"source": "OpenStreetMap api/0.6/map bbox=74.92,32.975,74.98,33.05 (fetched 2026-07-03); walkable ways + ropeway + helipads + shrine POIs for the Katra->Bhawan->Bhairon corridor", "license": "ODbL (c) OpenStreetMap contributors"}, "features": [{"type": "Feature", "properties": {"name": "Shri Mata Vaishno Devi Katra", "kind": "poi", "osm_id": "node/2671401164"}, "geometry": {"type": "Point", "coordinates": [74.934995, 32.9830373]}}, {"type": "Feature", "properties": {"name": "Vaishno Devi", "kind": "poi", "osm_id": "node/4192372021"}, "geometry": {"type": "Point", "coordinates": [74.945375, 33.027399]}}, {"type": "Feature", "properties": {"name": "Bhairon Ghati Ropeway Station", "kind": "poi", "osm_id": "node/7771149956"}, "geometry": {"type": "Point", "coordinates": [74.9451187, 33.0251402]}}, {"type": "Feature", "properties": {"name": "Vaishno Devi Trek Start Point", "kind": "poi", "osm_id": "node/11421759325"}, "geometry": {"type": "Point", "coordinates": [74.9397762, 32.9982306]}}, {"type": "Feature", "properties": {"name": "Bhairon Temple", "kind": "poi", "osm_id": "node/11517417238"}, "geometry": {"type": "Point", "coordinates": [74.9447663, 33.0249166]}}, {"type": "Feature", "properties": {"name": "Upper Bazaar", "kind": "pedestrian", "osm_id": "way/62069798"}, "geometry": {"type": "LineString", "coordinates": [[74.9340737, 32.9932146], [74.9342492, 32.9933446], [74.934952, 32.9938171], [74.9352738, 32.9940758], [74.9355266, 32.9943116], [74.9358693, 32.9946314], [74.9360074, 32.9947417], [74.9362743, 32.9945943], [74.9364057, 32.9947023], [74.9366069, 32.9946933], [74.9369301, 32.994564], [74.9371769, 32.9945223], [74.9375725, 32.9944155]]}}, {"type": "Feature", "properties": {"name": "", "kind": "footway", "osm_id": "way/102769561"}, "geometry": {"type": "LineString", "coordinates": [[74.9354375, 32.9843943], [74.9357866, 32.9833576], [74.9361749, 32.9834552], [74.9362567, 32.9832189]]}}, {"type": "Feature", "properties": {"name": "", "kind": "footway", "osm_id": "way/102769562"}, "geometry": {"type": "LineString", "coordinates": [[74.9343929, 32.9818599], [74.9343077, 32.9821096], [74.9341878, 32.9824617]]}}, {"type": "Feature", "properties": {"name": "Vaishno Devi Trek", "kind": "footway", "osm_id": "way/166322201"}, "geometry": {"type": "LineString", "coordinates": [[74.9470457, 33.0268391], [74.9472376, 33.0268741], [74.9474035, 33.0271718], [74.9477076, 33.0272774], [74.9477065, 33.0275049], [74.9478013, 33.0276586], [74.9476781, 33.0278437], [74.9477675, 33.0279313], [74.9478955, 33.0280028], [74.9481489, 33.0279687], [74.9488701, 33.0286982], [74.9488228, 33.0288314], [74.948711, 33.0290065], [74.9485473, 33.0292259], [74.9482718, 33.0296677], [74.9482499, 33.0298249], [74.9477529, 33.0301713], [74.9481541, 33.030583], [74.9483337, 33.0306181], [74.9483756, 33.0308892], [74.9486032, 33.0310499], [74.9490823, 33.031065]]}}, {"type": "Feature", "properties": {"name": "", "kind": "footway", "osm_id": "way/261537934"}, "geometry": {"type": "LineString", "coordinates": [[74.9343696, 32.9826212], [74.9342185, 32.983049], [74.9342805, 32.9830711], [74.9339637, 32.9839477]]}}, {"type": "Feature", "properties": {"name": "", "kind": "footway", "osm_id": "way/261537936"}, "geometry": {"type": "LineString", "coordinates": [[74.9362567, 32.9832189], [74.9356937, 32.9830298], [74.9355431, 32.982896], [74.9343696, 32.9826212], [74.9341598, 32.9825392], [74.9341878, 32.9824617]]}}, {"type": "Feature", "properties": {"name": "", "kind": "pedestrian", "osm_id": "way/419064287"}, "geometry": {"type": "LineString", "coordinates": [[74.9444563, 33.0076404], [74.9443169, 33.0076299], [74.9441694, 33.0076716], [74.9440218, 33.0077953], [74.943822, 33.0078582], [74.9437147, 33.007838], [74.943598, 33.0078009], [74.943527, 33.0077132], [74.9438301, 33.0075062], [74.9437979, 33.007351], [74.9437523, 33.0071688], [74.9438408, 33.0069731], [74.9440902, 33.0067235]]}}, {"type": "Feature", "properties": {"name": "", "kind": "pedestrian", "osm_id": "way/419064288"}, "geometry": {"type": "LineString", "coordinates": [[74.943527, 33.0077132], [74.9432775, 33.0078166], [74.943079, 33.0077761], [74.9429825, 33.0077267], [74.9428484, 33.0076277], [74.9427572, 33.007513], [74.9427035, 33.0074612], [74.9426365, 33.0074343], [74.942548, 33.0074882], [74.9424299, 33.0076075], [74.9423414, 33.0076727], [74.9422556, 33.0077537], [74.9422234, 33.0078076], [74.9421403, 33.0080888], [74.9420115, 33.0082013], [74.9419015, 33.0082463], [74.9417728, 33.0082732], [74.9417031, 33.0083115], [74.9416092, 33.0084847], [74.941459, 33.008948], [74.9413785, 33.009128], [74.9412712, 33.0091954], [74.9411559, 33.0091752], [74.9410379, 33.0091729], [74.9407616, 33.0092697], [74.9406302, 33.0093439], [74.9403646, 33.00985], [74.939792, 33.0100265], [74.9393602, 33.0101997], [74.9392797, 33.0103009], [74.9391912, 33.0104944], [74.9389551, 33.0106451], [74.9389069, 33.010852], [74.9389042, 33.0110342], [74.938821, 33.0110724], [74.9386065, 33.0111062], [74.9384884, 33.0111984], [74.9384589, 33.0113041], [74.9384643, 33.0114345], [74.9383275, 33.0114908], [74.9382497, 33.011529], [74.9381934, 33.0117179], [74.9381639, 33.0118034], [74.9380915, 33.0117967], [74.9379466, 33.0117157], [74.9377723, 33.011574], [74.9375577, 33.0113581], [74.9372358, 33.0112096], [74.9367289, 33.0111961], [74.9365546, 33.0111017], [74.9363293, 33.0109802], [74.9359833, 33.0109622], [74.935656, 33.0108475], [74.935184, 33.0108722], [74.934846, 33.0108722], [74.9345965, 33.0108228], [74.9348487, 33.0107508], [74.9352912, 33.0107081], [74.9355541, 33.0106586], [74.9357043, 33.0105708], [74.9358894, 33.0105236], [74.9362568, 33.0105686], [74.9364473, 33.0105619], [74.9366243, 33.0106023], [74.9368281, 33.0107373], [74.9369891, 33.0107238], [74.9371983, 33.0106496], [74.9372949, 33.0106271], [74.9375765, 33.0107305], [74.937783, 33.0108902], [74.937901, 33.01096], [74.9381076, 33.0108835], [74.9382068, 33.0107823], [74.9382309, 33.0106068], [74.9381666, 33.0103257], [74.9382363, 33.010121], [74.9384375, 33.0099546], [74.9386279, 33.0097769], [74.9387459, 33.0093135], [74.9390383, 33.0091246], [74.939226, 33.0089694], [74.9394916, 33.0089649], [74.9395855, 33.0088164], [74.9396579, 33.0086927], [74.9398376, 33.0085938], [74.9399583, 33.0084791], [74.9400092, 33.0082924], [74.9398885, 33.0079527], [74.9397678, 33.0078223], [74.9397088, 33.0076356], [74.9397142, 33.0074466], [74.9398134, 33.0073432], [74.9400361, 33.0072487], [74.9402372, 33.0072105]]}}, {"type": "Feature", "properties": {"name": "Himkoti Route", "kind": "pedestrian", "osm_id": "way/419064289"}, "geometry": {"type": "LineString", "coordinates": [[74.9446736, 33.008497], [74.9444537, 33.0082069], [74.9445878, 33.0081079], [74.9444, 33.00782], [74.9441881, 33.0078942], [74.9440245, 33.0080022], [74.9438287, 33.0080967], [74.9437161, 33.0081597], [74.94348, 33.0081529], [74.9432681, 33.0080539], [74.9430911, 33.0080832], [74.942898, 33.0081259], [74.9428014, 33.0080584], [74.9426164, 33.0080112], [74.9425439, 33.0080449], [74.9424152, 33.0081327], [74.9422382, 33.0082384], [74.9419646, 33.0083059], [74.9418358, 33.0084138], [74.9416883, 33.0086522], [74.9416132, 33.0090054], [74.9415703, 33.0092056], [74.941514, 33.0092798], [74.9413906, 33.0093045], [74.941168, 33.0092663], [74.941066, 33.009345], [74.9409024, 33.0094822], [74.9405886, 33.0101795], [74.9404733, 33.0103302], [74.9403821, 33.0102964], [74.9401434, 33.0103279], [74.9399529, 33.0103977], [74.9397705, 33.0105619], [74.9396257, 33.0106181], [74.9395747, 33.0108655], [74.9395533, 33.0110342], [74.9395801, 33.0112299], [74.9396123, 33.0113806], [74.9396042, 33.0115403], [74.9394272, 33.0114593], [74.939218, 33.0112794], [74.9391295, 33.0112928], [74.9389954, 33.0114233], [74.9389766, 33.0115583], [74.9389283, 33.0117449], [74.9387821, 33.011971], [74.9389216, 33.0121228], [74.9389753, 33.0122308], [74.9389753, 33.0124501], [74.9388264, 33.0126221], [74.9387218, 33.0126401], [74.9385702, 33.0126435], [74.9384951, 33.0126918], [74.9384884, 33.0127807], [74.9383691, 33.0128245], [74.9382779, 33.0126862], [74.9381719, 33.012576], [74.9381089, 33.0125411], [74.9378943, 33.0125378], [74.9376851, 33.0124793], [74.9376073, 33.0123263], [74.9376046, 33.0120002], [74.9375778, 33.011863], [74.9375188, 33.011782], [74.9373874, 33.0117348], [74.937197, 33.0118045], [74.936969, 33.0117708], [74.9368402, 33.0118698], [74.9367544, 33.0120025], [74.9367034, 33.0122229], [74.9366176, 33.0123151], [74.9364298, 33.0122386], [74.9362957, 33.0122161], [74.9361831, 33.0122386], [74.9360409, 33.0122724], [74.9359122, 33.0122566], [74.9356869, 33.0121014], [74.9354884, 33.0120092], [74.9353704, 33.0120587], [74.935357, 33.0121914], [74.9354374, 33.0123871], [74.935373, 33.0124411], [74.9352819, 33.012567], [74.9352523, 33.0127739], [74.9352041, 33.0129944], [74.9351156, 33.0130731], [74.9349037, 33.0131923], [74.9346247, 33.0132867], [74.9344531, 33.0133137], [74.9342626, 33.0132957], [74.9341124, 33.0132867], [74.9340051, 33.0134464], [74.9338978, 33.0136668], [74.9335357, 33.0136511], [74.9332997, 33.0136219], [74.9330637, 33.0134847], [74.9329081, 33.0134712], [74.9329054, 33.0135431], [74.9330744, 33.0139232], [74.9332568, 33.0143258], [74.9334821, 33.0151839], [74.9335652, 33.0152997], [74.9336403, 33.0155167], [74.9335854, 33.0155325], [74.9334445, 33.0155347], [74.9331347, 33.0155078], [74.9326734, 33.0154819], [74.9321088, 33.0154302], [74.9319801, 33.0154583], [74.9318164, 33.0154481], [74.9317118, 33.0154054], [74.931626, 33.0153278], [74.9314798, 33.015302], [74.9313417, 33.0153402], [74.9312076, 33.0153458], [74.9311258, 33.0152165], [74.9310198, 33.0150591], [74.9307865, 33.0152075], [74.9307543, 33.0153042], [74.9307972, 33.0155201], [74.930765, 33.0157518], [74.9306443, 33.0159407], [74.9305638, 33.0160262], [74.9305075, 33.0162263], [74.930419, 33.0163613], [74.9301025, 33.0164647], [74.9299818, 33.0165412], [74.9299845, 33.0166559], [74.9301293, 33.0167661], [74.9304324, 33.0169528], [74.9308428, 33.0170495], [74.931052, 33.0170945], [74.931162, 33.0171889], [74.9312317, 33.0172946], [74.9314195, 33.0173104], [74.9315724, 33.0174228], [74.9316716, 33.0175218], [74.9320364, 33.017632], [74.9322107, 33.0178569], [74.9322268, 33.0179604], [74.9320015, 33.0185473], [74.9319801, 33.0187475], [74.9316394, 33.0188914], [74.9314543, 33.0188645], [74.9313551, 33.0188645], [74.9312076, 33.0192018], [74.9312666, 33.0194919], [74.9313229, 33.0196516], [74.9315965, 33.0199462], [74.9316689, 33.0201396], [74.9316823, 33.0203623], [74.9314436, 33.0205534], [74.9313953, 33.0206209], [74.9314731, 33.0207401], [74.9315992, 33.0207873], [74.9317869, 33.0207604], [74.9319291, 33.0207536], [74.9322188, 33.0208323], [74.9324414, 33.0208323], [74.9325648, 33.0208008], [74.9326855, 33.0208031], [74.9329483, 33.0212551], [74.9329698, 33.0215497], [74.9333882, 33.0220198], [74.9334848, 33.0221007], [74.9336135, 33.0220692], [74.93415, 33.0217409], [74.934327, 33.0215767], [74.9344826, 33.0213428], [74.9347052, 33.0211899], [74.93485, 33.0210347], [74.9350431, 33.0209628], [74.9354857, 33.0209268], [74.9358371, 33.0208166], [74.9361616, 33.0207783], [74.9362314, 33.0208593], [74.9362287, 33.0209852], [74.9360409, 33.0213113], [74.9358934, 33.0215722], [74.935821, 33.0217634], [74.9358022, 33.0219478], [74.9358773, 33.0221839], [74.9359444, 33.0223144], [74.9360302, 33.0223481], [74.9362394, 33.0222986], [74.9363923, 33.0222019], [74.9365666, 33.0221614], [74.9367571, 33.0221727], [74.936918, 33.0222357], [74.9370199, 33.0223256], [74.9371755, 33.0224988], [74.9372721, 33.0227102], [74.9375295, 33.0227866], [74.9377066, 33.0228069], [74.9378514, 33.0228609], [74.9380553, 33.0229531], [74.9382216, 33.0230498], [74.9382779, 33.023151], [74.938353, 33.0232589], [74.9383932, 33.0233804], [74.9383771, 33.0235265], [74.9382511, 33.0236952], [74.9382081, 33.0237784], [74.9382591, 33.0239426], [74.9383407, 33.0240944], [74.9382962, 33.024199], [74.9382297, 33.0243475], [74.9382021, 33.0243787], [74.9381532, 33.0244143], [74.9381961, 33.0249028], [74.9382417, 33.0250007], [74.9383516, 33.0250917], [74.9384308, 33.0251547], [74.93853, 33.0251929], [74.9386199, 33.0251626], [74.9386722, 33.0251086], [74.938813, 33.0250265], [74.9390195, 33.0249534], [74.9391778, 33.0249062], [74.9392636, 33.0248455], [74.9396525, 33.024678], [74.9398953, 33.0246532], [74.9400736, 33.0246588], [74.940146, 33.02466], [74.9402855, 33.0244789], [74.9404532, 33.0244115], [74.9406262, 33.0244576], [74.940779, 33.0244587], [74.9409212, 33.0245025], [74.9409775, 33.0245813], [74.9410754, 33.0246937], [74.9412833, 33.0249017], [74.941286, 33.0249343], [74.9414576, 33.0252289], [74.9414429, 33.0253031], [74.9413933, 33.0254133], [74.9414027, 33.0254864], [74.9414523, 33.0255775], [74.9416521, 33.025835], [74.9417218, 33.0260081], [74.9417312, 33.0261262], [74.9417996, 33.026242], [74.941864, 33.0263713], [74.9419686, 33.0264725], [74.9420504, 33.0264219], [74.9421818, 33.0263612], [74.9423186, 33.0263792], [74.9423642, 33.0263916], [74.9424487, 33.0262982], [74.9425627, 33.0262409], [74.9426754, 33.0262488], [74.9427478, 33.0263522], [74.9427223, 33.026441], [74.9427719, 33.0264647], [74.9428336, 33.0264118], [74.9430857, 33.0262915], [74.9432145, 33.0263061], [74.943307, 33.0263612], [74.9437831, 33.0267784], [74.943987, 33.0270224], [74.9442042, 33.0271438], [74.9444376, 33.0272506], [74.9446079, 33.0274642], [74.9447018, 33.0275868], [74.9447782, 33.0276711], [74.9448895, 33.0277161], [74.9450692, 33.0277881], [74.9452556, 33.0278151], [74.9454126, 33.0277847], [74.9459329, 33.0276228], [74.9461059, 33.0274642], [74.9461622, 33.0273203], [74.9462293, 33.0272574], [74.9464237, 33.0271955], [74.9466383, 33.0271179], [74.9468623, 33.0270617], [74.9470457, 33.0268391]]}}, {"type": "Feature", "properties": {"name": "Vaishno Devi Track", "kind": "pedestrian", "osm_id": "way/419064290"}, "geometry": {"type": "LineString", "coordinates": [[74.9470795, 33.0031388], [74.9472244, 33.00321], [74.9472686, 33.0032853], [74.9472472, 33.0033697], [74.9471828, 33.0033641], [74.9471412, 33.0032853], [74.9470796, 33.0032066], [74.9466678, 33.0030548], [74.946527, 33.0029445], [74.9464305, 33.0028962], [74.9463151, 33.0028872], [74.9461596, 33.0028996], [74.9459879, 33.0029412], [74.9458766, 33.0029434], [74.9457438, 33.0029772], [74.9457666, 33.0030255], [74.9458726, 33.0030435], [74.9460201, 33.0030345], [74.9461676, 33.0030154], [74.9463218, 33.0030413], [74.9464908, 33.0032763], [74.9467014, 33.0033843], [74.9468462, 33.0034473], [74.9469119, 33.0035395], [74.9469535, 33.0037093], [74.9471225, 33.0038286], [74.9474175, 33.003923], [74.9475355, 33.00395], [74.9477796, 33.0039118], [74.9478505, 33.0039061], [74.947962, 33.0039208], [74.9481283, 33.003968], [74.9482489, 33.0039711], [74.948406, 33.0040049], [74.9485231, 33.0040103], [74.9486728, 33.0039748], [74.9487723, 33.0039745], [74.9488515, 33.0040219], [74.9489839, 33.0041772], [74.9491502, 33.0042964], [74.9492024, 33.0043681], [74.9491554, 33.0044103], [74.9490435, 33.0043725], [74.9489405, 33.0042836], [74.9487838, 33.0042035], [74.9486863, 33.004159], [74.9485501, 33.0041619], [74.9484403, 33.0041884], [74.9483227, 33.0041764], [74.9482506, 33.0041686], [74.9481177, 33.0041892], [74.9479833, 33.0042379], [74.9478055, 33.0043118], [74.9476197, 33.0043333], [74.9474768, 33.0043168], [74.9472833, 33.0043256], [74.9471826, 33.0043062], [74.9470793, 33.0042999], [74.9469627, 33.0043274], [74.9467905, 33.004365], [74.9466353, 33.0043736], [74.9464069, 33.0043038], [74.9464198, 33.004381], [74.9464734, 33.0044651], [74.9465726, 33.0045326], [74.9469293, 33.0045461], [74.9474068, 33.0046563], [74.9478037, 33.0047418], [74.9480138, 33.004666], [74.9481108, 33.0045928], [74.9481797, 33.0045699], [74.9482426, 33.0046095], [74.9482973, 33.0046901], [74.9484555, 33.004951], [74.9485226, 33.00505], [74.948644, 33.0051084], [74.9487735, 33.0051599], [74.9491341, 33.0057113], [74.9492065, 33.0058147], [74.9493567, 33.0059812], [74.9494667, 33.0061746], [74.9494426, 33.0063006], [74.9494426, 33.0064873], [74.9495123, 33.006629], [74.9496089, 33.0066762], [74.9498476, 33.006692], [74.9500085, 33.0067887], [74.9499602, 33.0068337], [74.9497081, 33.0068045], [74.9495016, 33.0067662], [74.9493326, 33.0066605], [74.9492334, 33.0065098], [74.9491851, 33.0062534], [74.9488686, 33.0061387], [74.9486433, 33.0059834], [74.9483885, 33.005691], [74.9482839, 33.0056438], [74.9480988, 33.0056281], [74.9478788, 33.0056168], [74.9476321, 33.0055471], [74.947278, 33.0054301], [74.9471117, 33.0054076], [74.9468355, 33.0054773], [74.9464063, 33.0055741], [74.9459182, 33.0055831], [74.9456982, 33.0057113], [74.9457733, 33.0058057], [74.9459611, 33.0058215], [74.9461864, 33.0058282], [74.9464197, 33.0058192], [74.9467148, 33.0057923], [74.9471775, 33.0058057], [74.9472821, 33.0059576], [74.9474484, 33.0061465], [74.9477166, 33.0062073], [74.947856, 33.0062297], [74.9478695, 33.0062849], [74.9477568, 33.0063175], [74.9475704, 33.0063152], [74.9473437, 33.0062129], [74.9470648, 33.0060498], [74.9469039, 33.0060183], [74.946747, 33.0060386], [74.9465766, 33.0061229], [74.9463379, 33.0061825], [74.9461743, 33.0062691], [74.9459651, 33.0064367], [74.9455949, 33.0065233], [74.9455252, 33.0064839], [74.9453924, 33.0064412], [74.9452771, 33.0065233], [74.9450974, 33.0066099], [74.9448788, 33.0067066], [74.9447232, 33.0067505], [74.9445985, 33.0066999], [74.9444859, 33.0065975], [74.9442901, 33.006512], [74.9440902, 33.0067235], [74.9441975, 33.0067212], [74.9444067, 33.0067482], [74.9445408, 33.0069597], [74.9446642, 33.0070429], [74.9448332, 33.0070811], [74.9450505, 33.0070474], [74.9452463, 33.0069237], [74.9453857, 33.0069124], [74.9455628, 33.0069821], [74.9457398, 33.0070181], [74.9459088, 33.0070316], [74.946236, 33.0068989], [74.9463031, 33.0068944], [74.9462682, 33.0069417], [74.9461153, 33.0070721], [74.9459383, 33.0071688], [74.945839, 33.0071756], [74.9456003, 33.0071666], [74.9454501, 33.0071981], [74.9452811, 33.0072813], [74.9451282, 33.0074028], [74.9450853, 33.0074927], [74.9449861, 33.0075287], [74.9447232, 33.007513], [74.9445543, 33.0075062], [74.9444765, 33.0075377], [74.9444563, 33.0076404], [74.9445274, 33.0076457], [74.9450545, 33.0077424], [74.9452731, 33.0077244], [74.9455198, 33.0076367], [74.9457277, 33.0075523], [74.9459101, 33.007576], [74.9460268, 33.0076378], [74.9462347, 33.0075119], [74.946413, 33.0073904], [74.9464948, 33.007414], [74.9465619, 33.0074804], [74.9465069, 33.0075535], [74.9461783, 33.0077222], [74.9458216, 33.0078493], [74.9456902, 33.007964], [74.9455346, 33.0080045], [74.9453307, 33.0081394], [74.9451403, 33.0082969], [74.9446736, 33.008497]]}}, {"type": "Feature", "properties": {"name": "Hathimata Route", "kind": "pedestrian", "osm_id": "way/419064291"}, "geometry": {"type": "LineString", "coordinates": [[74.9446736, 33.008497], [74.9444429, 33.0085758], [74.9441157, 33.00874], [74.9440084, 33.0088659], [74.9440647, 33.0090211], [74.9441935, 33.0091291], [74.9442605, 33.0092236], [74.9442713, 33.0094192], [74.9443303, 33.0096104], [74.9443652, 33.0099636], [74.9441425, 33.010274], [74.9438475, 33.0105506], [74.9438207, 33.0104179], [74.9438636, 33.010121], [74.9439736, 33.0095295], [74.9435927, 33.0093833], [74.9433432, 33.0098758], [74.9431903, 33.0104247], [74.9431501, 33.0108543], [74.9429436, 33.0109825], [74.9426646, 33.010969], [74.9422234, 33.0112141], [74.9421993, 33.011339], [74.9421684, 33.0115695], [74.9422502, 33.0117089], [74.9422449, 33.0117641], [74.9422221, 33.0118866], [74.9422945, 33.0119642], [74.9424112, 33.0120193], [74.9422945, 33.012161], [74.9422717, 33.0123084], [74.9422489, 33.0124152], [74.9422449, 33.0126097], [74.9422703, 33.0127717], [74.9422315, 33.0130337], [74.9422543, 33.013172], [74.942261, 33.01328], [74.94221, 33.0133081], [74.9421751, 33.0132699], [74.9421483, 33.0131709], [74.9421121, 33.013027], [74.9421094, 33.0129392], [74.9420893, 33.0127357], [74.9420987, 33.0127188], [74.9419793, 33.0126457], [74.9418479, 33.0127042], [74.9418908, 33.0128628], [74.9418814, 33.0130101], [74.9418372, 33.0130506], [74.9418345, 33.0131518], [74.9418667, 33.0132215], [74.9418613, 33.0132564], [74.9417527, 33.0132789], [74.9416789, 33.0132406], [74.94164, 33.0131439], [74.9416414, 33.013027], [74.941699, 33.0127379], [74.9415448, 33.0125119], [74.9414818, 33.0125187], [74.9413785, 33.0125749], [74.9412699, 33.0126604], [74.9412162, 33.0129561], [74.9411478, 33.0131068], [74.9412806, 33.0131473], [74.9411948, 33.0132159], [74.9411103, 33.0132879], [74.9410379, 33.0133205], [74.9408944, 33.0133801], [74.9409118, 33.0134251], [74.9409601, 33.0134104], [74.9411666, 33.0133047], [74.9412712, 33.0132215], [74.9413959, 33.0131867], [74.9414684, 33.0132193], [74.9415757, 33.0133328], [74.9414496, 33.013488], [74.9413732, 33.0136758], [74.9413825, 33.0138457], [74.9413919, 33.0140098], [74.9414831, 33.0142775], [74.941514, 33.0144012], [74.9415327, 33.0144889], [74.9414711, 33.0145631], [74.9414013, 33.0145822], [74.9413852, 33.0144709], [74.9413745, 33.0142887], [74.9413557, 33.01421], [74.9413021, 33.0141572], [74.9412229, 33.0140548], [74.9411572, 33.0138951], [74.9411197, 33.0139165], [74.9411143, 33.0140694], [74.9408649, 33.0145316], [74.9408005, 33.0146362], [74.9407133, 33.0147476], [74.9404706, 33.0148611], [74.94037, 33.0148982], [74.9402574, 33.0148892], [74.9401353, 33.0147858], [74.9400106, 33.0147104], [74.9398979, 33.0147442], [74.9397638, 33.0148195], [74.9395707, 33.0148982], [74.9393655, 33.0149207], [74.9392958, 33.0149837], [74.9392542, 33.0152693], [74.9391697, 33.0155066], [74.9391335, 33.0155808], [74.9389404, 33.0157259], [74.9388465, 33.0158282], [74.9387526, 33.0158788], [74.9386279, 33.0158305], [74.9385568, 33.0157518], [74.9384334, 33.0157563], [74.9382698, 33.0157889], [74.9381156, 33.0157653], [74.9379694, 33.0156911], [74.9378662, 33.0156843], [74.9378165, 33.0157394], [74.9377696, 33.0158755], [74.9376529, 33.016016], [74.9375671, 33.016151], [74.9375617, 33.0164411], [74.9374947, 33.0165468], [74.9374035, 33.0166233], [74.9374021, 33.0167256], [74.937429, 33.016919], [74.9373659, 33.0170517], [74.937315, 33.0170731], [74.9372412, 33.0171136], [74.9371125, 33.0172485], [74.9369314, 33.017542], [74.9368281, 33.0176421], [74.9367048, 33.0177613], [74.9366417, 33.0179604], [74.9366607, 33.0179613], [74.9370052, 33.0179783], [74.9372962, 33.0180379], [74.9375255, 33.0181212], [74.9377455, 33.0183483], [74.9378447, 33.0184731], [74.9379708, 33.0185541], [74.9380834, 33.0185462], [74.9382725, 33.0184664], [74.9384026, 33.0184439], [74.9385099, 33.0184799], [74.9385635, 33.018544], [74.9386185, 33.0185676], [74.9387446, 33.0185552], [74.9388505, 33.018571], [74.93899, 33.0186902], [74.9390933, 33.0188217], [74.939214, 33.0190725], [74.939226, 33.0192693], [74.9392019, 33.0194245], [74.9392207, 33.0195144], [74.9392797, 33.019574], [74.9393923, 33.019655], [74.9395613, 33.0197461], [74.9396109, 33.019827], [74.9395989, 33.0200294], [74.9395358, 33.0201801], [74.9394809, 33.0207952], [74.9393347, 33.0208728], [74.9392086, 33.0209605], [74.9391375, 33.0209875], [74.9389471, 33.0209391], [74.938809, 33.0209122], [74.9387687, 33.0208863], [74.9386507, 33.0208244], [74.9385313, 33.0208065], [74.938475, 33.0208357], [74.9384174, 33.0209538], [74.9383087, 33.0212484], [74.9383034, 33.0214519], [74.9383355, 33.0216453], [74.938412, 33.02176], [74.9385769, 33.0217937], [74.9386802, 33.0218185], [74.938821, 33.0218871], [74.938994, 33.0220243], [74.9390879, 33.0220726], [74.9391053, 33.0221412], [74.9391483, 33.0222008], [74.9394889, 33.0225224], [74.9397249, 33.0226956], [74.9398134, 33.0227889], [74.9398483, 33.0229002], [74.9397625, 33.0229384], [74.9395922, 33.0229025], [74.9392663, 33.0228968], [74.9391737, 33.0229115], [74.9390745, 33.0230464], [74.9391067, 33.0231487], [74.9392582, 33.0232106], [74.9393132, 33.0233253], [74.9394178, 33.0235164], [74.9394768, 33.0236165], [74.9395707, 33.0236277], [74.9397182, 33.0235456], [74.9397906, 33.0235389], [74.9399891, 33.0236277], [74.940138, 33.0236525], [74.9403432, 33.0237368], [74.9405604, 33.0238211], [74.9407026, 33.0238886], [74.9408863, 33.0238953], [74.9410486, 33.0238998], [74.9411814, 33.0239606], [74.9414241, 33.0241562], [74.9415569, 33.024344], [74.9417245, 33.0247027], [74.9418331, 33.0248545], [74.941919, 33.0249208], [74.9420263, 33.0251266], [74.9420155, 33.0252424], [74.9420598, 33.0253661], [74.9421684, 33.0254842], [74.9422891, 33.0254977], [74.9424299, 33.0254561], [74.9424729, 33.0254516], [74.9425936, 33.0255179], [74.942851, 33.0257675], [74.9431836, 33.0259497], [74.9436195, 33.0262072], [74.9437912, 33.0263196], [74.943936, 33.026459], [74.9439843, 33.0265175], [74.9440446, 33.0265287], [74.9440956, 33.026513], [74.9441533, 33.0264804], [74.9442176, 33.0264894], [74.9442592, 33.0265231], [74.9442565, 33.0265636], [74.9442646, 33.0266727], [74.9443517, 33.0268672], [74.9444604, 33.0269515], [74.9446441, 33.0270572], [74.9447299, 33.0270707], [74.9449378, 33.026929], [74.9451014, 33.0268492], [74.9452637, 33.0268267], [74.9454461, 33.0268177], [74.9455333, 33.0267311], [74.9455386, 33.0266063], [74.9456674, 33.0263747], [74.9458189, 33.0262915], [74.9459651, 33.0262162], [74.9461032, 33.0261802], [74.9463433, 33.0261577], [74.9465243, 33.0261656], [74.9468623, 33.0262555], [74.9471064, 33.0263893], [74.9472096, 33.0264635], [74.9467698, 33.0263893], [74.9465592, 33.0263994], [74.9463701, 33.02645], [74.9461488, 33.0265198], [74.9459825, 33.0266108], [74.9459021, 33.0267548], [74.9458363, 33.0268931], [74.9457765, 33.027056], [74.9457961, 33.0271236], [74.9459973, 33.0269594], [74.9461931, 33.0269212], [74.9464211, 33.0269167], [74.9467644, 33.0269279], [74.9470457, 33.0268391]]}}, {"type": "Feature", "properties": {"name": "Bhawan - Bhairon Ghati Ropeway", "kind": "ropeway", "osm_id": "way/832372417"}, "geometry": {"type": "LineString", "coordinates": [[74.9467714, 33.0279151], [74.9467079, 33.0277992], [74.9465168, 33.0275018], [74.9454946, 33.0257847], [74.945176, 33.0252165], [74.9451187, 33.0251402]]}}, {"type": "Feature", "properties": {"name": "", "kind": "steps", "osm_id": "way/852601470"}, "geometry": {"type": "LineString", "coordinates": [[74.9341754, 32.9818088], [74.9343929, 32.9818599], [74.9345596, 32.981899]]}}, {"type": "Feature", "properties": {"name": "", "kind": "steps", "osm_id": "way/885924753"}, "geometry": {"type": "LineString", "coordinates": [[74.9359327, 32.9822254], [74.9365571, 32.9823744], [74.9367207, 32.9824134]]}}, {"type": "Feature", "properties": {"name": "", "kind": "steps", "osm_id": "way/885924754"}, "geometry": {"type": "LineString", "coordinates": [[74.9362808, 32.9825856], [74.936466, 32.9826305], [74.9369821, 32.982755]]}}, {"type": "Feature", "properties": {"name": "", "kind": "steps", "osm_id": "way/885924756"}, "geometry": {"type": "LineString", "coordinates": [[74.9340909, 32.9820587], [74.9343077, 32.9821096], [74.9344751, 32.9821489]]}}, {"type": "Feature", "properties": {"name": "", "kind": "path", "osm_id": "way/1064002141"}, "geometry": {"type": "LineString", "coordinates": [[74.9499214, 33.0326195], [74.9500716, 33.0328173], [74.9506187, 33.0331591], [74.9509942, 33.0335189], [74.9512517, 33.0340766], [74.9515307, 33.0346432], [74.9519384, 33.035039], [74.9522817, 33.0355247], [74.9524319, 33.0361003], [74.9527538, 33.0362712], [74.9527752, 33.036514], [74.9530971, 33.036604], [74.9531186, 33.0369008], [74.9530756, 33.0372965], [74.9526679, 33.0375394], [74.9525177, 33.0380071], [74.9524158, 33.0384208], [74.952625, 33.0388885], [74.9528396, 33.0397069], [74.9527967, 33.0400217], [74.9527001, 33.0404175], [74.9523139, 33.0406693], [74.9522066, 33.0408851], [74.9516594, 33.041137], [74.9519062, 33.0416226], [74.9518847, 33.0422072], [74.9513376, 33.0427558], [74.9513912, 33.0431605], [74.9517023, 33.0437181], [74.9523783, 33.043844], [74.9529147, 33.043871], [74.9532151, 33.0439969], [74.9537516, 33.0441228], [74.953891, 33.0442937], [74.9537086, 33.0447794], [74.9534297, 33.045337], [74.9534726, 33.0458046], [74.9537194, 33.0461463], [74.9533653, 33.046614], [74.9526143, 33.0472525], [74.9522817, 33.0476302], [74.9522173, 33.0484396], [74.9519062, 33.0493839], [74.9510479, 33.0511015], [74.9511981, 33.0516051], [74.9506831, 33.0533497], [74.9510693, 33.0545726], [74.9507904, 33.0566768], [74.9507368, 33.0572343], [74.9515629, 33.0578728], [74.9516487, 33.0584752], [74.952212, 33.0584303], [74.9526143, 33.0585157], [74.9529308, 33.0584842], [74.9532473, 33.0585831], [74.9536711, 33.0584572], [74.9539983, 33.0584932], [74.9542612, 33.058165], [74.9544758, 33.0578728], [74.9545187, 33.0575805], [74.9547172, 33.0574726], [74.9548835, 33.0574366], [74.9550819, 33.0572838], [74.9553233, 33.0572815], [74.955605, 33.0573602], [74.9559858, 33.0574299], [74.9561548, 33.0574535], [74.9562004, 33.0575063], [74.9562822, 33.0575704], [74.9563466, 33.0576221], [74.9564861, 33.0575985], [74.9566296, 33.0576232], [74.9566604, 33.057567], [74.9567838, 33.0575232], [74.956871, 33.0575401], [74.9571767, 33.0575468], [74.9573162, 33.0574973], [74.9575227, 33.0574816], [74.9576059, 33.0575176], [74.9576595, 33.0575108], [74.9577333, 33.0575749], [74.9578151, 33.0575502], [74.9580163, 33.057612], [74.9580686, 33.0576345], [74.9582335, 33.0575704], [74.9582671, 33.05754], [74.9586305, 33.0576142], [74.9589524, 33.0575895], [74.9592984, 33.0575738], [74.9593064, 33.0576749], [74.9595827, 33.0577604], [74.9598616, 33.0577356], [74.9599501, 33.0577649], [74.9601915, 33.0579469], [74.9604624, 33.0580256], [74.9606448, 33.058174], [74.960854, 33.0582954], [74.9610472, 33.0582549], [74.9611705, 33.0580256], [74.961369, 33.0578368], [74.9616963, 33.0577289], [74.9616694, 33.057567], [74.9615675, 33.0574052], [74.9614817, 33.0572253], [74.9617016, 33.0571894], [74.9619645, 33.0571624]]}}, {"type": "Feature", "properties": {"name": "Main Bazaar", "kind": "pedestrian", "osm_id": "way/1159437036"}, "geometry": {"type": "LineString", "coordinates": [[74.9314771, 32.9921572], [74.9317152, 32.992158], [74.9324662, 32.9923583], [74.932968, 32.9924833], [74.9334553, 32.992618], [74.9336994, 32.9928025], [74.933861, 32.9930023], [74.9340737, 32.9932146]]}}, {"type": "Feature", "properties": {"name": "", "kind": "footway", "osm_id": "way/1159437049"}, "geometry": {"type": "LineString", "coordinates": [[74.9362567, 32.9832189], [74.936466, 32.9826305], [74.9365571, 32.9823744]]}}, {"type": "Feature", "properties": {"name": "", "kind": "footway", "osm_id": "way/1273244955"}, "geometry": {"type": "LineString", "coordinates": [[74.9366607, 33.0179613], [74.9369421, 33.0177261], [74.9371919, 33.0175599], [74.9375071, 33.0172556], [74.9378997, 33.0169165], [74.9378561, 33.0170894], [74.9377569, 33.0173105], [74.937634, 33.0175382], [74.9376062, 33.0176812], [74.9376419, 33.0176879], [74.9377371, 33.017495], [74.9379413, 33.0173088], [74.9381475, 33.0170279], [74.9383834, 33.0167436], [74.9385004, 33.0167203], [74.9387264, 33.0167286], [74.9388295, 33.0167735], [74.9389564, 33.0167635], [74.9392161, 33.0167187], [74.9395691, 33.0166738], [74.9399695, 33.0165507], [74.9401956, 33.0162532], [74.9402848, 33.0162981], [74.9403225, 33.0164759], [74.9401103, 33.0168001], [74.9399656, 33.0168766], [74.9399061, 33.0169514], [74.9396424, 33.0170977], [74.939351, 33.0171459], [74.9392717, 33.0171642], [74.9392042, 33.0172723], [74.9394243, 33.017372], [74.9397673, 33.0174601], [74.9400175, 33.0175675], [74.9403571, 33.0178325], [74.9407673, 33.0180185], [74.941043, 33.0183512], [74.9411707, 33.0185965], [74.9411136, 33.0187713], [74.9412077, 33.0188333], [74.9413388, 33.0190814], [74.9414969, 33.0191744], [74.9415338, 33.0192872], [74.9415776, 33.019462], [74.9416952, 33.0195917], [74.9417289, 33.0196988], [74.9416784, 33.0197693], [74.9416179, 33.0198144], [74.9415977, 33.0199835], [74.9415406, 33.0201019], [74.9415305, 33.0202006], [74.9415977, 33.020381], [74.941761, 33.0204111], [74.9418628, 33.0204466], [74.9419327, 33.0205426], [74.9419327, 33.0206989], [74.9419835, 33.0209086], [74.9420068, 33.0210738], [74.9420047, 33.0211946], [74.9420111, 33.0213084], [74.9419708, 33.0215891], [74.9419051, 33.0218627], [74.9417738, 33.0220777], [74.9418098, 33.0222021], [74.9417801, 33.022346], [74.9416805, 33.0223851], [74.9416233, 33.0224632], [74.9416275, 33.0225645], [74.9416699, 33.0226143], [74.941778, 33.0225841], [74.9419221, 33.0224686], [74.941956, 33.0223495], [74.9420747, 33.022195], [74.9421806, 33.0220315], [74.942527, 33.0219413], [74.9426613, 33.0219492], [74.9431518, 33.0223447], [74.9435298, 33.0225935], [74.9441796, 33.02312], [74.9442752, 33.0236459], [74.9442794, 33.0239255], [74.9444211, 33.0241981], [74.9447129, 33.0251032]]}}, {"type": "Feature", "properties": {"name": "", "kind": "footway", "osm_id": "way/1371863811"}, "geometry": {"type": "LineString", "coordinates": [[74.9326228, 32.9807549], [74.9325212, 32.9807281], [74.9323971, 32.9810724], [74.9326422, 32.98113], [74.9323413, 32.9819594], [74.9329144, 32.9820931], [74.9328314, 32.9823499]]}}]}