{
 "type": "FeatureCollection",
 "properties": {
  "name": "Triund trek - routed corridor + waypoints",
  "source": "OpenStreetMap via Overpass, shortest path on the footpath graph between OSM-named waypoints",
  "retrieved": "2026-09-07"
 },
 "features": [
  {
   "type": "Feature",
   "properties": {
    "name": "McLeod Ganj (town, road head) -> Dharamkot",
    "kind": "trail",
    "osm_id": "routed from OSM footpath network",
    "len_km": 3.46
   },
   "geometry": {
    "type": "LineString",
    "coordinates": [
     [
      76.3299,
      32.2446
     ],
     [
      76.32992,
      32.24461
     ],
     [
      76.33,
      32.24466
     ],
     [
      76.33001,
      32.24477
     ],
     [
      76.33007,
      32.24487
     ],
     [
      76.33012,
      32.24492
     ],
     [
      76.33013,
      32.24499
     ],
     [
      76.33033,
      32.24502
     ],
     [
      76.33056,
      32.24507
     ],
     [
      76.3308,
      32.24552
     ],
     [
      76.33088,
      32.24558
     ],
     [
      76.33089,
      32.24569
     ],
     [
      76.33102,
      32.24558
     ],
     [
      76.33106,
      32.2456
     ],
     [
      76.3312,
      32.24554
     ],
     [
      76.33135,
      32.24563
     ],
     [
      76.33153,
      32.2456
     ],
     [
      76.33161,
      32.24559
     ],
     [
      76.33179,
      32.24579
     ],
     [
      76.33178,
      32.24596
     ],
     [
      76.33182,
      32.24598
     ],
     [
      76.33205,
      32.24588
     ],
     [
      76.33212,
      32.24585
     ],
     [
      76.33218,
      32.24583
     ],
     [
      76.33227,
      32.24581
     ],
     [
      76.3322,
      32.2461
     ],
     [
      76.33203,
      32.24633
     ],
     [
      76.33194,
      32.24644
     ],
     [
      76.33184,
      32.24658
     ],
     [
      76.3317,
      32.24682
     ],
     [
      76.33164,
      32.24692
     ],
     [
      76.33169,
      32.24708
     ],
     [
      76.33173,
      32.24715
     ],
     [
      76.33182,
      32.24731
     ],
     [
      76.33186,
      32.24735
     ],
     [
      76.33201,
      32.24743
     ],
     [
      76.33199,
      32.24753
     ],
     [
      76.33193,
      32.24761
     ],
     [
      76.33198,
      32.24765
     ],
     [
      76.33204,
      32.24772
     ],
     [
      76.33214,
      32.24777
     ],
     [
      76.33218,
      32.24785
     ],
     [
      76.33218,
      32.24792
     ],
     [
      76.33212,
      32.248
     ],
     [
      76.33211,
      32.24807
     ],
     [
      76.33221,
      32.24815
     ],
     [
      76.3322,
      32.24816
     ],
     [
      76.33225,
      32.24827
     ],
     [
      76.33223,
      32.24834
     ],
     [
      76.33226,
      32.24847
     ],
     [
      76.33232,
      32.2485
     ],
     [
      76.3323,
      32.24855
     ],
     [
      76.33242,
      32.24867
     ],
     [
      76.33235,
      32.24869
     ],
     [
      76.33242,
      32.2488
     ],
     [
      76.33245,
      32.24886
     ],
     [
      76.33238,
      32.24892
     ],
     [
      76.3324,
      32.24898
     ],
     [
      76.33251,
      32.24897
     ],
     [
      76.33247,
      32.24903
     ],
     [
      76.33251,
      32.24905
     ],
     [
      76.33249,
      32.24915
     ],
     [
      76.33256,
      32.24915
     ],
     [
      76.33254,
      32.24923
     ],
     [
      76.33247,
      32.24928
     ],
     [
      76.33248,
      32.24931
     ],
     [
      76.3326,
      32.24932
     ],
     [
      76.33251,
      32.24943
     ],
     [
      76.3325,
      32.2495
     ],
     [
      76.33244,
      32.24964
     ],
     [
      76.33264,
      32.24959
     ],
     [
      76.33269,
      32.24961
     ],
     [
      76.33261,
      32.24977
     ],
     [
      76.3326,
      32.2498
     ],
     [
      76.33252,
      32.24994
     ],
     [
      76.3325,
      32.25007
     ],
     [
      76.33254,
      32.25017
     ],
     [
      76.33262,
      32.25038
     ],
     [
      76.33275,
      32.25033
     ],
     [
      76.33273,
      32.25043
     ],
     [
      76.33279,
      32.25053
     ],
     [
      76.33289,
      32.2505
     ],
     [
      76.33296,
      32.25066
     ],
     [
      76.33303,
      32.25083
     ],
     [
      76.33314,
      32.25101
     ],
     [
      76.33309,
      32.2511
     ],
     [
      76.33294,
      32.25127
     ],
     [
      76.33287,
      32.2513
     ],
     [
      76.33288,
      32.25132
     ],
     [
      76.33281,
      32.25135
     ],
     [
      76.33284,
      32.2514
     ],
     [
      76.33276,
      32.25144
     ],
     [
      76.3327,
      32.25141
     ],
     [
      76.33267,
      32.2514
     ],
     [
      76.33263,
      32.25137
     ],
     [
      76.33257,
      32.25129
     ],
     [
      76.33253,
      32.25127
     ],
     [
      76.33245,
      32.25124
     ],
     [
      76.33237,
      32.25123
     ],
     [
      76.33234,
      32.25124
     ],
     [
      76.33231,
      32.25127
     ],
     [
      76.33227,
      32.25133
     ],
     [
      76.3322,
      32.25138
     ],
     [
      76.33216,
      32.25138
     ],
     [
      76.33208,
      32.25138
     ],
     [
      76.33201,
      32.25139
     ],
     [
      76.33193,
      32.25142
     ],
     [
      76.33188,
      32.25146
     ],
     [
      76.33182,
      32.25148
     ],
     [
      76.33172,
      32.25156
     ],
     [
      76.33162,
      32.25162
     ],
     [
      76.33154,
      32.25165
     ],
     [
      76.3315,
      32.25168
     ],
     [
      76.33144,
      32.25175
     ],
     [
      76.33144,
      32.25182
     ],
     [
      76.33141,
      32.25194
     ],
     [
      76.33134,
      32.25207
     ],
     [
      76.33116,
      32.25223
     ],
     [
      76.33112,
      32.25229
     ],
     [
      76.33109,
      32.25243
     ],
     [
      76.33104,
      32.25259
     ],
     [
      76.331,
      32.25264
     ],
     [
      76.33095,
      32.25269
     ],
     [
      76.3309,
      32.25271
     ],
     [
      76.33084,
      32.25271
     ],
     [
      76.33076,
      32.25262
     ],
     [
      76.33071,
      32.25255
     ],
     [
      76.33065,
      32.25243
     ],
     [
      76.3306,
      32.25224
     ],
     [
      76.33058,
      32.25213
     ],
     [
      76.33057,
      32.25203
     ],
     [
      76.33056,
      32.25196
     ],
     [
      76.33049,
      32.25197
     ],
     [
      76.33043,
      32.25196
     ],
     [
      76.33035,
      32.2519
     ],
     [
      76.33027,
      32.25189
     ],
     [
      76.3302,
      32.2519
     ],
     [
      76.33013,
      32.25196
     ],
     [
      76.32976,
      32.25205
     ],
     [
      76.32965,
      32.25217
     ],
     [
      76.32946,
      32.25223
     ],
     [
      76.32933,
      32.2523
     ],
     [
      76.32928,
      32.25242
     ],
     [
      76.32916,
      32.25249
     ],
     [
      76.32911,
      32.25253
     ],
     [
      76.32906,
      32.25252
     ],
     [
      76.32899,
      32.25255
     ],
     [
      76.3288,
      32.25269
     ],
     [
      76.32875,
      32.25283
     ],
     [
      76.32868,
      32.25296
     ],
     [
      76.32869,
      32.2531
     ],
     [
      76.32867,
      32.2532
     ],
     [
      76.3287,
      32.2533
     ],
     [
      76.32871,
      32.25338
     ],
     [
      76.32867,
      32.25341
     ],
     [
      76.32849,
      32.25359
     ],
     [
      76.32838,
      32.2537
     ],
     [
      76.32825,
      32.25386
     ],
     [
      76.32816,
      32.25398
     ],
     [
      76.32808,
      32.25404
     ],
     [
      76.328,
      32.25404
     ],
     [
      76.32792,
      32.25407
     ],
     [
      76.32773,
      32.254
     ],
     [
      76.32765,
      32.25406
     ],
     [
      76.32732,
      32.25436
     ],
     [
      76.3272,
      32.25442
     ],
     [
      76.32733,
      32.25446
     ],
     [
      76.3273,
      32.25448
     ],
     [
      76.32721,
      32.25453
     ],
     [
      76.32717,
      32.25454
     ],
     [
      76.32712,
      32.25456
     ],
     [
      76.32706,
      32.25459
     ],
     [
      76.327,
      32.2546
     ],
     [
      76.32689,
      32.25464
     ],
     [
      76.3265,
      32.25471
     ],
     [
      76.32628,
      32.25467
     ],
     [
      76.32623,
      32.2547
     ],
     [
      76.32619,
      32.25472
     ],
     [
      76.3261,
      32.25469
     ],
     [
      76.32606,
      32.2547
     ],
     [
      76.32605,
      32.25472
     ],
     [
      76.32605,
      32.2547
     ],
     [
      76.32601,
      32.25467
     ],
     [
      76.326,
      32.25463
     ],
     [
      76.326,
      32.25461
     ],
     [
      76.32599,
      32.25452
     ],
     [
      76.32593,
      32.25446
     ],
     [
      76.3259,
      32.25442
     ],
     [
      76.32587,
      32.25438
     ],
     [
      76.32586,
      32.25437
     ],
     [
      76.32584,
      32.25437
     ],
     [
      76.32589,
      32.25426
     ],
     [
      76.32583,
      32.25413
     ],
     [
      76.32578,
      32.25387
     ],
     [
      76.32539,
      32.25366
     ],
     [
      76.32495,
      32.25327
     ],
     [
      76.32484,
      32.25273
     ],
     [
      76.32481,
      32.2526
     ],
     [
      76.32436,
      32.25261
     ],
     [
      76.32397,
      32.25242
     ],
     [
      76.3237,
      32.25242
     ],
     [
      76.32347,
      32.25241
     ],
     [
      76.32327,
      32.25236
     ],
     [
      76.32304,
      32.252
     ],
     [
      76.32303,
      32.25181
     ],
     [
      76.32312,
      32.25165
     ],
     [
      76.32314,
      32.2515
     ],
     [
      76.32316,
      32.25143
     ],
     [
      76.32326,
      32.2514
     ],
     [
      76.32338,
      32.25146
     ],
     [
      76.32332,
      32.25097
     ],
     [
      76.32338,
      32.25094
     ],
     [
      76.32336,
      32.25078
     ],
     [
      76.32338,
      32.25073
     ],
     [
      76.32332,
      32.25068
     ],
     [
      76.32333,
      32.25063
     ],
     [
      76.32336,
      32.25063
     ],
     [
      76.3234,
      32.25056
     ],
     [
      76.32345,
      32.25055
     ],
     [
      76.32343,
      32.2505
     ],
     [
      76.32351,
      32.25045
     ],
     [
      76.32344,
      32.25038
     ],
     [
      76.32339,
      32.25027
     ],
     [
      76.32344,
      32.25015
     ],
     [
      76.32342,
      32.25013
     ],
     [
      76.32346,
      32.25004
     ],
     [
      76.32345,
      32.24994
     ],
     [
      76.32342,
      32.24972
     ],
     [
      76.32336,
      32.24943
     ],
     [
      76.32338,
      32.24913
     ],
     [
      76.32351,
      32.24855
     ],
     [
      76.32381,
      32.2481
     ],
     [
      76.32435,
      32.24752
     ],
     [
      76.3249,
      32.24694
     ],
     [
      76.32529,
      32.24661
     ],
     [
      76.32528,
      32.24629
     ],
     [
      76.32534,
      32.24614
     ],
     [
      76.32543,
      32.24596
     ],
     [
      76.32551,
      32.2458
     ],
     [
      76.32558,
      32.24585
     ]
    ]
   }
  },
  {
   "type": "Feature",
   "properties": {
    "name": "Dharamkot -> Galu Devi Mandir (trailhead)",
    "kind": "trail",
    "osm_id": "routed from OSM footpath network",
    "len_km": 1.28
   },
   "geometry": {
    "type": "LineString",
    "coordinates": [
     [
      76.32558,
      32.24585
     ],
     [
      76.32551,
      32.2458
     ],
     [
      76.32543,
      32.24596
     ],
     [
      76.32534,
      32.24614
     ],
     [
      76.32528,
      32.24629
     ],
     [
      76.32529,
      32.24661
     ],
     [
      76.3249,
      32.24694
     ],
     [
      76.32435,
      32.24752
     ],
     [
      76.32381,
      32.2481
     ],
     [
      76.32351,
      32.24855
     ],
     [
      76.32338,
      32.24913
     ],
     [
      76.32336,
      32.24943
     ],
     [
      76.32342,
      32.24972
     ],
     [
      76.32345,
      32.24994
     ],
     [
      76.32346,
      32.25004
     ],
     [
      76.32342,
      32.25013
     ],
     [
      76.32344,
      32.25015
     ],
     [
      76.32339,
      32.25027
     ],
     [
      76.32344,
      32.25038
     ],
     [
      76.32351,
      32.25045
     ],
     [
      76.32343,
      32.2505
     ],
     [
      76.32345,
      32.25055
     ],
     [
      76.3234,
      32.25056
     ],
     [
      76.32336,
      32.25063
     ],
     [
      76.32333,
      32.25063
     ],
     [
      76.32332,
      32.25068
     ],
     [
      76.32338,
      32.25073
     ],
     [
      76.32336,
      32.25078
     ],
     [
      76.32338,
      32.25094
     ],
     [
      76.32332,
      32.25097
     ],
     [
      76.32338,
      32.25146
     ],
     [
      76.32326,
      32.2514
     ],
     [
      76.32316,
      32.25143
     ],
     [
      76.32314,
      32.2515
     ],
     [
      76.32312,
      32.25165
     ],
     [
      76.32303,
      32.25181
     ],
     [
      76.32304,
      32.252
     ],
     [
      76.32327,
      32.25236
     ],
     [
      76.32347,
      32.25241
     ],
     [
      76.3237,
      32.25242
     ],
     [
      76.32397,
      32.25242
     ],
     [
      76.32436,
      32.25261
     ],
     [
      76.32481,
      32.2526
     ],
     [
      76.32484,
      32.25273
     ],
     [
      76.32495,
      32.25327
     ],
     [
      76.32539,
      32.25366
     ],
     [
      76.32578,
      32.25387
     ],
     [
      76.32583,
      32.25413
     ],
     [
      76.32589,
      32.25426
     ],
     [
      76.32584,
      32.25437
     ],
     [
      76.32575,
      32.25447
     ],
     [
      76.32576,
      32.25451
     ],
     [
      76.32582,
      32.25464
     ]
    ]
   }
  },
  {
   "type": "Feature",
   "properties": {
    "name": "Galu Devi Mandir (trailhead) -> Triund (ridge / campsites)",
    "kind": "trail",
    "osm_id": "routed from OSM footpath network",
    "len_km": 5.01
   },
   "geometry": {
    "type": "LineString",
    "coordinates": [
     [
      76.32582,
      32.25464
     ],
     [
      76.3259,
      32.2547
     ],
     [
      76.32605,
      32.25472
     ],
     [
      76.32609,
      32.25477
     ],
     [
      76.32611,
      32.25479
     ],
     [
      76.32616,
      32.25483
     ],
     [
      76.32619,
      32.25484
     ],
     [
      76.32625,
      32.25486
     ],
     [
      76.32631,
      32.25489
     ],
     [
      76.32637,
      32.25495
     ],
     [
      76.32646,
      32.255
     ],
     [
      76.32649,
      32.25503
     ],
     [
      76.3266,
      32.2551
     ],
     [
      76.32677,
      32.25512
     ],
     [
      76.32712,
      32.25513
     ],
     [
      76.3273,
      32.25517
     ],
     [
      76.32764,
      32.25515
     ],
     [
      76.32773,
      32.2551
     ],
     [
      76.32793,
      32.25509
     ],
     [
      76.3281,
      32.25513
     ],
     [
      76.32822,
      32.2551
     ],
     [
      76.3283,
      32.2551
     ],
     [
      76.32849,
      32.2551
     ],
     [
      76.32856,
      32.25504
     ],
     [
      76.32865,
      32.255
     ],
     [
      76.32884,
      32.25508
     ],
     [
      76.32892,
      32.25505
     ],
     [
      76.32916,
      32.25512
     ],
     [
      76.32929,
      32.25504
     ],
     [
      76.32942,
      32.25497
     ],
     [
      76.32944,
      32.25503
     ],
     [
      76.32954,
      32.25503
     ],
     [
      76.32965,
      32.25507
     ],
     [
      76.32978,
      32.25509
     ],
     [
      76.32993,
      32.25503
     ],
     [
      76.33006,
      32.25504
     ],
     [
      76.33028,
      32.25508
     ],
     [
      76.33057,
      32.25495
     ],
     [
      76.33067,
      32.25487
     ],
     [
      76.33101,
      32.25471
     ],
     [
      76.33115,
      32.25471
     ],
     [
      76.33133,
      32.25469
     ],
     [
      76.33146,
      32.25471
     ],
     [
      76.33155,
      32.25473
     ],
     [
      76.33176,
      32.25475
     ],
     [
      76.33194,
      32.25475
     ],
     [
      76.33202,
      32.25484
     ],
     [
      76.33209,
      32.25489
     ],
     [
      76.33228,
      32.25508
     ],
     [
      76.33235,
      32.25521
     ],
     [
      76.33249,
      32.25532
     ],
     [
      76.33256,
      32.25528
     ],
     [
      76.33269,
      32.25524
     ],
     [
      76.33289,
      32.25518
     ],
     [
      76.33297,
      32.25506
     ],
     [
      76.33318,
      32.25484
     ],
     [
      76.33317,
      32.25465
     ],
     [
      76.33314,
      32.2546
     ],
     [
      76.33309,
      32.25456
     ],
     [
      76.33305,
      32.25453
     ],
     [
      76.33298,
      32.25445
     ],
     [
      76.33295,
      32.25438
     ],
     [
      76.33295,
      32.2543
     ],
     [
      76.33296,
      32.25417
     ],
     [
      76.33294,
      32.25407
     ],
     [
      76.33296,
      32.25397
     ],
     [
      76.33298,
      32.2539
     ],
     [
      76.33303,
      32.25383
     ],
     [
      76.33307,
      32.25377
     ],
     [
      76.33307,
      32.25369
     ],
     [
      76.33303,
      32.25361
     ],
     [
      76.33299,
      32.25358
     ],
     [
      76.33309,
      32.2534
     ],
     [
      76.33319,
      32.25336
     ],
     [
      76.33327,
      32.25334
     ],
     [
      76.3335,
      32.25341
     ],
     [
      76.33361,
      32.2534
     ],
     [
      76.3337,
      32.25333
     ],
     [
      76.33383,
      32.25332
     ],
     [
      76.33391,
      32.2533
     ],
     [
      76.334,
      32.25324
     ],
     [
      76.33406,
      32.25323
     ],
     [
      76.33414,
      32.25323
     ],
     [
      76.33435,
      32.25327
     ],
     [
      76.33448,
      32.25326
     ],
     [
      76.33459,
      32.25322
     ],
     [
      76.33472,
      32.25326
     ],
     [
      76.33475,
      32.25335
     ],
     [
      76.33481,
      32.25343
     ],
     [
      76.33481,
      32.25352
     ],
     [
      76.33485,
      32.25363
     ],
     [
      76.33493,
      32.25371
     ],
     [
      76.33505,
      32.25376
     ],
     [
      76.33523,
      32.25393
     ],
     [
      76.33533,
      32.25389
     ],
     [
      76.33537,
      32.25374
     ],
     [
      76.33554,
      32.25367
     ],
     [
      76.33562,
      32.2536
     ],
     [
      76.33576,
      32.2535
     ],
     [
      76.33584,
      32.25342
     ],
     [
      76.33591,
      32.25333
     ],
     [
      76.33594,
      32.25327
     ],
     [
      76.33602,
      32.25318
     ],
     [
      76.33621,
      32.25315
     ],
     [
      76.33619,
      32.253
     ],
     [
      76.33617,
      32.25296
     ],
     [
      76.33617,
      32.25292
     ],
     [
      76.33618,
      32.25287
     ],
     [
      76.33619,
      32.25282
     ],
     [
      76.33621,
      32.25275
     ],
     [
      76.33633,
      32.25266
     ],
     [
      76.33635,
      32.2526
     ],
     [
      76.3364,
      32.25253
     ],
     [
      76.33648,
      32.25243
     ],
     [
      76.33654,
      32.25239
     ],
     [
      76.33665,
      32.25236
     ],
     [
      76.33673,
      32.25227
     ],
     [
      76.33677,
      32.25222
     ],
     [
      76.33684,
      32.25213
     ],
     [
      76.33689,
      32.25208
     ],
     [
      76.33703,
      32.25216
     ],
     [
      76.33706,
      32.25219
     ],
     [
      76.33717,
      32.25222
     ],
     [
      76.33728,
      32.25223
     ],
     [
      76.33738,
      32.25222
     ],
     [
      76.33747,
      32.25209
     ],
     [
      76.33753,
      32.25209
     ],
     [
      76.33761,
      32.25212
     ],
     [
      76.33771,
      32.25218
     ],
     [
      76.33777,
      32.25223
     ],
     [
      76.33783,
      32.25226
     ],
     [
      76.33787,
      32.25226
     ],
     [
      76.33799,
      32.25226
     ],
     [
      76.33829,
      32.25225
     ],
     [
      76.3384,
      32.25231
     ],
     [
      76.33849,
      32.25235
     ],
     [
      76.33856,
      32.25234
     ],
     [
      76.33864,
      32.25235
     ],
     [
      76.33881,
      32.25243
     ],
     [
      76.33891,
      32.25247
     ],
     [
      76.33895,
      32.25254
     ],
     [
      76.33897,
      32.25258
     ],
     [
      76.33897,
      32.25262
     ],
     [
      76.33896,
      32.25271
     ],
     [
      76.33896,
      32.25278
     ],
     [
      76.33897,
      32.25282
     ],
     [
      76.33902,
      32.2529
     ],
     [
      76.33915,
      32.25296
     ],
     [
      76.33926,
      32.25312
     ],
     [
      76.33922,
      32.25321
     ],
     [
      76.33928,
      32.25333
     ],
     [
      76.33943,
      32.25338
     ],
     [
      76.33957,
      32.25348
     ],
     [
      76.33956,
      32.25354
     ],
     [
      76.33955,
      32.25361
     ],
     [
      76.33955,
      32.25368
     ],
     [
      76.33956,
      32.25376
     ],
     [
      76.33958,
      32.25383
     ],
     [
      76.33961,
      32.25392
     ],
     [
      76.33972,
      32.254
     ],
     [
      76.33983,
      32.25416
     ],
     [
      76.33981,
      32.25427
     ],
     [
      76.33979,
      32.2543
     ],
     [
      76.33976,
      32.25436
     ],
     [
      76.33972,
      32.25446
     ],
     [
      76.33971,
      32.25456
     ],
     [
      76.33972,
      32.25467
     ],
     [
      76.33974,
      32.25472
     ],
     [
      76.33974,
      32.25477
     ],
     [
      76.33971,
      32.25482
     ],
     [
      76.33966,
      32.25486
     ],
     [
      76.33956,
      32.25503
     ],
     [
      76.33951,
      32.25514
     ],
     [
      76.33948,
      32.25526
     ],
     [
      76.33947,
      32.25536
     ],
     [
      76.3395,
      32.25545
     ],
     [
      76.33955,
      32.25553
     ],
     [
      76.33959,
      32.25561
     ],
     [
      76.33958,
      32.25567
     ],
     [
      76.33957,
      32.25571
     ],
     [
      76.33956,
      32.25576
     ],
     [
      76.3396,
      32.25586
     ],
     [
      76.33964,
      32.25596
     ],
     [
      76.33972,
      32.25605
     ],
     [
      76.33974,
      32.25611
     ],
     [
      76.33973,
      32.25618
     ],
     [
      76.33979,
      32.25626
     ],
     [
      76.33984,
      32.25629
     ],
     [
      76.33991,
      32.25631
     ],
     [
      76.33995,
      32.25635
     ],
     [
      76.33996,
      32.25638
     ],
     [
      76.33998,
      32.25649
     ],
     [
      76.33998,
      32.25657
     ],
     [
      76.34,
      32.25663
     ],
     [
      76.34006,
      32.25668
     ],
     [
      76.34013,
      32.2567
     ],
     [
      76.34018,
      32.2567
     ],
     [
      76.34019,
      32.25669
     ],
     [
      76.34024,
      32.25667
     ],
     [
      76.34028,
      32.25666
     ],
     [
      76.34033,
      32.25669
     ],
     [
      76.34036,
      32.25674
     ],
     [
      76.34038,
      32.25684
     ],
     [
      76.3404,
      32.25688
     ],
     [
      76.3404,
      32.25693
     ],
     [
      76.3404,
      32.25699
     ],
     [
      76.34043,
      32.25703
     ],
     [
      76.34068,
      32.25682
     ],
     [
      76.3409,
      32.25678
     ],
     [
      76.34103,
      32.25675
     ],
     [
      76.34112,
      32.25675
     ],
     [
      76.34124,
      32.25669
     ],
     [
      76.34131,
      32.25665
     ],
     [
      76.34143,
      32.25666
     ],
     [
      76.34148,
      32.25669
     ],
     [
      76.34161,
      32.25667
     ],
     [
      76.34168,
      32.25657
     ],
     [
      76.34175,
      32.2565
     ],
     [
      76.34178,
      32.25645
     ],
     [
      76.34181,
      32.2564
     ],
     [
      76.34193,
      32.25635
     ],
     [
      76.34204,
      32.25637
     ],
     [
      76.34223,
      32.25641
     ],
     [
      76.34237,
      32.2564
     ],
     [
      76.34255,
      32.25626
     ],
     [
      76.34266,
      32.25614
     ],
     [
      76.34269,
      32.25608
     ],
     [
      76.34265,
      32.25605
     ],
     [
      76.34259,
      32.256
     ],
     [
      76.34253,
      32.256
     ],
     [
      76.34252,
      32.256
     ],
     [
      76.34252,
      32.25598
     ],
     [
      76.34254,
      32.25595
     ],
     [
      76.34261,
      32.25589
     ],
     [
      76.34269,
      32.25587
     ],
     [
      76.34266,
      32.25582
     ],
     [
      76.34276,
      32.25579
     ],
     [
      76.34285,
      32.25574
     ],
     [
      76.34292,
      32.2557
     ],
     [
      76.34301,
      32.25568
     ],
     [
      76.34309,
      32.25567
     ],
     [
      76.34317,
      32.25571
     ],
     [
      76.34327,
      32.25579
     ],
     [
      76.3434,
      32.25588
     ],
     [
      76.34345,
      32.25594
     ],
     [
      76.34358,
      32.25604
     ],
     [
      76.34367,
      32.25624
     ],
     [
      76.34384,
      32.25645
     ],
     [
      76.3439,
      32.2567
     ],
     [
      76.34389,
      32.25695
     ],
     [
      76.34383,
      32.25718
     ],
     [
      76.34384,
      32.25736
     ],
     [
      76.34382,
      32.25751
     ],
     [
      76.34379,
      32.25768
     ],
     [
      76.34381,
      32.25775
     ],
     [
      76.34387,
      32.25787
     ],
     [
      76.34388,
      32.258
     ],
     [
      76.34397,
      32.25813
     ],
     [
      76.344,
      32.25818
     ],
     [
      76.34403,
      32.25827
     ],
     [
      76.34407,
      32.25835
     ],
     [
      76.34407,
      32.25856
     ],
     [
      76.3441,
      32.25864
     ],
     [
      76.34417,
      32.25873
     ],
     [
      76.34425,
      32.25879
     ],
     [
      76.34429,
      32.25888
     ],
     [
      76.34432,
      32.25898
     ],
     [
      76.34432,
      32.25908
     ],
     [
      76.34432,
      32.25916
     ],
     [
      76.34431,
      32.25923
     ],
     [
      76.34433,
      32.2593
     ],
     [
      76.34437,
      32.25937
     ],
     [
      76.34442,
      32.25941
     ],
     [
      76.34443,
      32.25945
     ],
     [
      76.34444,
      32.25953
     ],
     [
      76.34452,
      32.25965
     ],
     [
      76.34455,
      32.25971
     ],
     [
      76.34464,
      32.25973
     ],
     [
      76.34467,
      32.25974
     ],
     [
      76.34473,
      32.25971
     ],
     [
      76.34476,
      32.25968
     ],
     [
      76.34482,
      32.25959
     ],
     [
      76.34487,
      32.25954
     ],
     [
      76.34491,
      32.25951
     ],
     [
      76.34492,
      32.25941
     ],
     [
      76.34503,
      32.25937
     ],
     [
      76.34504,
      32.25929
     ],
     [
      76.34518,
      32.25915
     ],
     [
      76.34532,
      32.25919
     ],
     [
      76.34541,
      32.25918
     ],
     [
      76.34548,
      32.25921
     ],
     [
      76.34561,
      32.2592
     ],
     [
      76.34585,
      32.2591
     ],
     [
      76.34588,
      32.25905
     ],
     [
      76.34603,
      32.25895
     ],
     [
      76.34612,
      32.259
     ],
     [
      76.34626,
      32.25896
     ],
     [
      76.34636,
      32.25898
     ],
     [
      76.34645,
      32.25901
     ],
     [
      76.34654,
      32.25906
     ],
     [
      76.34655,
      32.25911
     ],
     [
      76.34654,
      32.25916
     ],
     [
      76.34655,
      32.25921
     ],
     [
      76.34657,
      32.25926
     ],
     [
      76.34659,
      32.25929
     ],
     [
      76.34656,
      32.25932
     ],
     [
      76.34653,
      32.2593
     ],
     [
      76.34647,
      32.25925
     ],
     [
      76.34641,
      32.25918
     ],
     [
      76.34637,
      32.25917
     ],
     [
      76.34634,
      32.25917
     ],
     [
      76.3463,
      32.25917
     ],
     [
      76.34629,
      32.25919
     ],
     [
      76.3463,
      32.25923
     ],
     [
      76.34634,
      32.25927
     ],
     [
      76.34639,
      32.25932
     ],
     [
      76.34646,
      32.25942
     ],
     [
      76.34654,
      32.25949
     ],
     [
      76.34658,
      32.25955
     ],
     [
      76.3466,
      32.25961
     ],
     [
      76.34668,
      32.25967
     ],
     [
      76.34676,
      32.25971
     ],
     [
      76.34682,
      32.25979
     ],
     [
      76.34686,
      32.25985
     ],
     [
      76.3469,
      32.25996
     ],
     [
      76.34691,
      32.26002
     ],
     [
      76.34692,
      32.26013
     ],
     [
      76.34696,
      32.26022
     ],
     [
      76.347,
      32.2603
     ],
     [
      76.34704,
      32.26038
     ],
     [
      76.34711,
      32.26046
     ],
     [
      76.34717,
      32.26053
     ],
     [
      76.34723,
      32.26055
     ],
     [
      76.34729,
      32.26054
     ],
     [
      76.34734,
      32.26055
     ],
     [
      76.34739,
      32.26057
     ],
     [
      76.34746,
      32.26058
     ],
     [
      76.34753,
      32.26057
     ],
     [
      76.34759,
      32.26055
     ],
     [
      76.34767,
      32.26053
     ],
     [
      76.34774,
      32.26053
     ],
     [
      76.34786,
      32.26055
     ],
     [
      76.34793,
      32.26056
     ],
     [
      76.34796,
      32.26061
     ],
     [
      76.34796,
      32.26066
     ],
     [
      76.34793,
      32.2607
     ],
     [
      76.34793,
      32.26075
     ],
     [
      76.34793,
      32.26082
     ],
     [
      76.34793,
      32.2609
     ],
     [
      76.34792,
      32.261
     ],
     [
      76.34795,
      32.2611
     ],
     [
      76.34796,
      32.26118
     ],
     [
      76.348,
      32.26127
     ],
     [
      76.34805,
      32.26135
     ],
     [
      76.3482,
      32.26143
     ],
     [
      76.34824,
      32.26146
     ],
     [
      76.34826,
      32.26152
     ],
     [
      76.34834,
      32.26167
     ],
     [
      76.34838,
      32.26172
     ],
     [
      76.34842,
      32.26176
     ],
     [
      76.3485,
      32.26187
     ],
     [
      76.34853,
      32.26194
     ],
     [
      76.34859,
      32.262
     ],
     [
      76.34866,
      32.26205
     ],
     [
      76.34867,
      32.26208
     ],
     [
      76.34863,
      32.2621
     ],
     [
      76.34856,
      32.26209
     ],
     [
      76.34854,
      32.26211
     ],
     [
      76.34854,
      32.26212
     ],
     [
      76.34857,
      32.26217
     ],
     [
      76.34866,
      32.26223
     ],
     [
      76.34872,
      32.26229
     ],
     [
      76.34879,
      32.26238
     ],
     [
      76.34882,
      32.26241
     ],
     [
      76.34884,
      32.26243
     ],
     [
      76.34889,
      32.26247
     ],
     [
      76.34909,
      32.26254
     ],
     [
      76.3492,
      32.26255
     ],
     [
      76.3493,
      32.26256
     ],
     [
      76.34939,
      32.26256
     ],
     [
      76.34955,
      32.26259
     ],
     [
      76.34968,
      32.2627
     ],
     [
      76.34984,
      32.26274
     ],
     [
      76.35004,
      32.26278
     ],
     [
      76.35013,
      32.26279
     ],
     [
      76.35018,
      32.26281
     ],
     [
      76.35022,
      32.26289
     ],
     [
      76.35028,
      32.26296
     ],
     [
      76.35035,
      32.26297
     ],
     [
      76.35043,
      32.26298
     ],
     [
      76.35047,
      32.26296
     ],
     [
      76.35051,
      32.26297
     ],
     [
      76.35053,
      32.26298
     ],
     [
      76.35057,
      32.263
     ],
     [
      76.35063,
      32.263
     ],
     [
      76.35066,
      32.263
     ],
     [
      76.35074,
      32.26295
     ],
     [
      76.35085,
      32.26288
     ],
     [
      76.35092,
      32.26282
     ],
     [
      76.35095,
      32.26277
     ],
     [
      76.35096,
      32.26269
     ],
     [
      76.35099,
      32.26265
     ],
     [
      76.35102,
      32.26263
     ],
     [
      76.35104,
      32.26265
     ],
     [
      76.35102,
      32.26273
     ],
     [
      76.35103,
      32.26276
     ],
     [
      76.35106,
      32.26277
     ],
     [
      76.3511,
      32.26278
     ],
     [
      76.35114,
      32.26275
     ],
     [
      76.35119,
      32.26271
     ],
     [
      76.35121,
      32.26265
     ],
     [
      76.3513,
      32.26252
     ],
     [
      76.35132,
      32.26249
     ],
     [
      76.35134,
      32.26249
     ],
     [
      76.35136,
      32.2625
     ],
     [
      76.35137,
      32.26253
     ],
     [
      76.35138,
      32.26254
     ],
     [
      76.3514,
      32.26254
     ],
     [
      76.35143,
      32.26254
     ],
     [
      76.35152,
      32.2625
     ],
     [
      76.35157,
      32.26251
     ],
     [
      76.35157,
      32.26252
     ],
     [
      76.35148,
      32.26266
     ],
     [
      76.35148,
      32.26267
     ],
     [
      76.3515,
      32.26267
     ],
     [
      76.35153,
      32.26266
     ],
     [
      76.3516,
      32.2626
     ],
     [
      76.35165,
      32.26257
     ],
     [
      76.35168,
      32.26252
     ],
     [
      76.35172,
      32.26238
     ],
     [
      76.35177,
      32.26235
     ],
     [
      76.35191,
      32.26231
     ],
     [
      76.35208,
      32.26235
     ],
     [
      76.35217,
      32.26236
     ],
     [
      76.35221,
      32.26234
     ],
     [
      76.35224,
      32.26229
     ],
     [
      76.35233,
      32.26217
     ],
     [
      76.35237,
      32.26217
     ],
     [
      76.35238,
      32.26219
     ],
     [
      76.35238,
      32.26224
     ],
     [
      76.35237,
      32.26243
     ],
     [
      76.35226,
      32.26253
     ],
     [
      76.35213,
      32.26259
     ],
     [
      76.35209,
      32.26262
     ],
     [
      76.35208,
      32.26264
     ],
     [
      76.35211,
      32.26265
     ],
     [
      76.35214,
      32.26265
     ],
     [
      76.35218,
      32.26264
     ],
     [
      76.35225,
      32.2626
     ],
     [
      76.35228,
      32.2626
     ],
     [
      76.35228,
      32.26262
     ],
     [
      76.35226,
      32.26266
     ],
     [
      76.35228,
      32.26268
     ],
     [
      76.3523,
      32.26267
     ],
     [
      76.35234,
      32.26263
     ],
     [
      76.35238,
      32.26258
     ],
     [
      76.35242,
      32.26256
     ],
     [
      76.35251,
      32.26254
     ],
     [
      76.35254,
      32.26253
     ],
     [
      76.35255,
      32.26251
     ],
     [
      76.35257,
      32.26247
     ],
     [
      76.3526,
      32.26244
     ],
     [
      76.35263,
      32.26244
     ],
     [
      76.35262,
      32.26247
     ],
     [
      76.35259,
      32.26251
     ],
     [
      76.35258,
      32.26254
     ],
     [
      76.35259,
      32.26256
     ],
     [
      76.35261,
      32.26256
     ],
     [
      76.35267,
      32.26251
     ],
     [
      76.35271,
      32.26247
     ],
     [
      76.35275,
      32.26245
     ],
     [
      76.35279,
      32.2624
     ],
     [
      76.35283,
      32.26238
     ],
     [
      76.35286,
      32.26237
     ],
     [
      76.35286,
      32.26239
     ],
     [
      76.35284,
      32.26243
     ],
     [
      76.35282,
      32.26246
     ],
     [
      76.35282,
      32.26249
     ],
     [
      76.35284,
      32.26251
     ],
     [
      76.35287,
      32.2625
     ],
     [
      76.35289,
      32.26248
     ],
     [
      76.35295,
      32.26242
     ],
     [
      76.35297,
      32.2624
     ],
     [
      76.35299,
      32.26236
     ],
     [
      76.35303,
      32.26233
     ],
     [
      76.35309,
      32.26232
     ],
     [
      76.35317,
      32.26226
     ],
     [
      76.35317,
      32.26232
     ],
     [
      76.35316,
      32.26234
     ],
     [
      76.35314,
      32.26237
     ],
     [
      76.35314,
      32.26238
     ],
     [
      76.35315,
      32.26238
     ],
     [
      76.35319,
      32.26237
     ],
     [
      76.35321,
      32.26233
     ],
     [
      76.35322,
      32.26229
     ],
     [
      76.35323,
      32.26226
     ],
     [
      76.35324,
      32.26224
     ],
     [
      76.35338,
      32.26207
     ],
     [
      76.35346,
      32.26193
     ],
     [
      76.35351,
      32.26185
     ],
     [
      76.35355,
      32.26178
     ],
     [
      76.35362,
      32.26175
     ],
     [
      76.35368,
      32.26174
     ],
     [
      76.35374,
      32.26174
     ],
     [
      76.35378,
      32.26172
     ],
     [
      76.35381,
      32.26165
     ],
     [
      76.35386,
      32.26157
     ],
     [
      76.35396,
      32.26149
     ],
     [
      76.35403,
      32.26144
     ],
     [
      76.35449,
      32.26143
     ],
     [
      76.35446,
      32.2615
     ],
     [
      76.35442,
      32.2616
     ],
     [
      76.35439,
      32.26166
     ],
     [
      76.35433,
      32.26186
     ],
     [
      76.35432,
      32.26196
     ],
     [
      76.35433,
      32.26199
     ],
     [
      76.35434,
      32.26205
     ],
     [
      76.35428,
      32.26211
     ],
     [
      76.35429,
      32.26218
     ]
    ]
   }
  },
  {
   "type": "Feature",
   "properties": {
    "name": "Triund (ridge / campsites) -> Snowline Cafe",
    "kind": "trail",
    "osm_id": "routed from OSM footpath network",
    "len_km": 2.01
   },
   "geometry": {
    "type": "LineString",
    "coordinates": [
     [
      76.35429,
      32.26218
     ],
     [
      76.35423,
      32.26223
     ],
     [
      76.35418,
      32.26228
     ],
     [
      76.35414,
      32.26232
     ],
     [
      76.35412,
      32.26238
     ],
     [
      76.35409,
      32.26248
     ],
     [
      76.35412,
      32.26256
     ],
     [
      76.35411,
      32.26264
     ],
     [
      76.35413,
      32.26269
     ],
     [
      76.35414,
      32.26285
     ],
     [
      76.35414,
      32.26298
     ],
     [
      76.35414,
      32.26309
     ],
     [
      76.35415,
      32.26317
     ],
     [
      76.35417,
      32.26325
     ],
     [
      76.35415,
      32.26331
     ],
     [
      76.35418,
      32.26338
     ],
     [
      76.3541,
      32.26346
     ],
     [
      76.35416,
      32.26359
     ],
     [
      76.35412,
      32.26368
     ],
     [
      76.35411,
      32.26373
     ],
     [
      76.35411,
      32.26377
     ],
     [
      76.35411,
      32.26381
     ],
     [
      76.35419,
      32.26382
     ],
     [
      76.35418,
      32.26391
     ],
     [
      76.35426,
      32.2639
     ],
     [
      76.35434,
      32.26393
     ],
     [
      76.3544,
      32.26403
     ],
     [
      76.35445,
      32.26411
     ],
     [
      76.35443,
      32.2642
     ],
     [
      76.35445,
      32.26429
     ],
     [
      76.35449,
      32.26435
     ],
     [
      76.35452,
      32.26441
     ],
     [
      76.35454,
      32.26447
     ],
     [
      76.35456,
      32.26457
     ],
     [
      76.35454,
      32.26458
     ],
     [
      76.35452,
      32.26463
     ],
     [
      76.35451,
      32.26474
     ],
     [
      76.35449,
      32.26481
     ],
     [
      76.35449,
      32.26485
     ],
     [
      76.35449,
      32.26489
     ],
     [
      76.35447,
      32.265
     ],
     [
      76.35437,
      32.26505
     ],
     [
      76.35425,
      32.2653
     ],
     [
      76.35414,
      32.26535
     ],
     [
      76.35407,
      32.26541
     ],
     [
      76.35403,
      32.2655
     ],
     [
      76.35404,
      32.26559
     ],
     [
      76.35398,
      32.26568
     ],
     [
      76.35401,
      32.2658
     ],
     [
      76.354,
      32.26591
     ],
     [
      76.35408,
      32.26605
     ],
     [
      76.35413,
      32.26618
     ],
     [
      76.35411,
      32.2663
     ],
     [
      76.35405,
      32.26639
     ],
     [
      76.35395,
      32.26646
     ],
     [
      76.35391,
      32.26655
     ],
     [
      76.35394,
      32.26664
     ],
     [
      76.35406,
      32.2667
     ],
     [
      76.35409,
      32.26678
     ],
     [
      76.35412,
      32.2669
     ],
     [
      76.3541,
      32.26696
     ],
     [
      76.35415,
      32.26704
     ],
     [
      76.3542,
      32.26713
     ],
     [
      76.35423,
      32.26722
     ],
     [
      76.35418,
      32.2672
     ],
     [
      76.35419,
      32.26724
     ],
     [
      76.35422,
      32.2673
     ],
     [
      76.35431,
      32.26737
     ],
     [
      76.35434,
      32.26745
     ],
     [
      76.3544,
      32.26751
     ],
     [
      76.35439,
      32.26761
     ],
     [
      76.3544,
      32.26769
     ],
     [
      76.35448,
      32.26773
     ],
     [
      76.35453,
      32.2678
     ],
     [
      76.35457,
      32.26789
     ],
     [
      76.35462,
      32.26797
     ],
     [
      76.35468,
      32.26804
     ],
     [
      76.35472,
      32.26812
     ],
     [
      76.35477,
      32.2682
     ],
     [
      76.35481,
      32.26819
     ],
     [
      76.35486,
      32.26821
     ],
     [
      76.35493,
      32.26827
     ],
     [
      76.35503,
      32.26832
     ],
     [
      76.35509,
      32.26838
     ],
     [
      76.35514,
      32.26848
     ],
     [
      76.35518,
      32.26857
     ],
     [
      76.35527,
      32.26859
     ],
     [
      76.35526,
      32.26866
     ],
     [
      76.3552,
      32.26871
     ],
     [
      76.35513,
      32.26871
     ],
     [
      76.35512,
      32.26864
     ],
     [
      76.35507,
      32.26855
     ],
     [
      76.35494,
      32.26857
     ],
     [
      76.35486,
      32.26856
     ],
     [
      76.35494,
      32.26861
     ],
     [
      76.35486,
      32.26869
     ],
     [
      76.35504,
      32.26871
     ],
     [
      76.355,
      32.26884
     ],
     [
      76.35503,
      32.26896
     ],
     [
      76.35511,
      32.26906
     ],
     [
      76.35506,
      32.26914
     ],
     [
      76.35517,
      32.2692
     ],
     [
      76.35521,
      32.26926
     ],
     [
      76.35528,
      32.2693
     ],
     [
      76.35536,
      32.26932
     ],
     [
      76.35535,
      32.2694
     ],
     [
      76.35546,
      32.26942
     ],
     [
      76.35553,
      32.26944
     ],
     [
      76.35558,
      32.26946
     ],
     [
      76.35564,
      32.26949
     ],
     [
      76.35567,
      32.2695
     ],
     [
      76.35577,
      32.26954
     ],
     [
      76.35581,
      32.26954
     ],
     [
      76.35597,
      32.26954
     ],
     [
      76.35608,
      32.26956
     ],
     [
      76.35616,
      32.26961
     ],
     [
      76.35628,
      32.26964
     ],
     [
      76.35627,
      32.2697
     ],
     [
      76.35618,
      32.26976
     ],
     [
      76.35623,
      32.26978
     ],
     [
      76.35634,
      32.2698
     ],
     [
      76.35643,
      32.26982
     ],
     [
      76.35652,
      32.26984
     ],
     [
      76.35657,
      32.26979
     ],
     [
      76.35667,
      32.26975
     ],
     [
      76.35674,
      32.26968
     ],
     [
      76.35683,
      32.26964
     ],
     [
      76.35693,
      32.26963
     ],
     [
      76.35702,
      32.26968
     ],
     [
      76.35712,
      32.26976
     ],
     [
      76.35721,
      32.26978
     ],
     [
      76.35732,
      32.2698
     ],
     [
      76.35746,
      32.2698
     ],
     [
      76.35769,
      32.26988
     ],
     [
      76.35779,
      32.26999
     ],
     [
      76.35779,
      32.27014
     ],
     [
      76.35816,
      32.27028
     ],
     [
      76.35827,
      32.27028
     ],
     [
      76.3583,
      32.27035
     ],
     [
      76.35838,
      32.27035
     ],
     [
      76.35847,
      32.27038
     ],
     [
      76.35851,
      32.27044
     ],
     [
      76.35853,
      32.27053
     ],
     [
      76.35856,
      32.27063
     ],
     [
      76.35853,
      32.27071
     ],
     [
      76.35856,
      32.27074
     ],
     [
      76.35866,
      32.27077
     ],
     [
      76.35865,
      32.27081
     ],
     [
      76.35876,
      32.2708
     ],
     [
      76.35887,
      32.27089
     ],
     [
      76.35899,
      32.27094
     ],
     [
      76.35908,
      32.27091
     ],
     [
      76.35915,
      32.27094
     ],
     [
      76.35921,
      32.271
     ],
     [
      76.35924,
      32.27103
     ],
     [
      76.35929,
      32.27107
     ],
     [
      76.35933,
      32.27107
     ],
     [
      76.35938,
      32.27108
     ],
     [
      76.3595,
      32.27106
     ],
     [
      76.35954,
      32.27105
     ],
     [
      76.3596,
      32.27104
     ],
     [
      76.35971,
      32.27107
     ],
     [
      76.3598,
      32.27113
     ],
     [
      76.3599,
      32.27117
     ],
     [
      76.36002,
      32.27117
     ],
     [
      76.36012,
      32.27119
     ],
     [
      76.36022,
      32.27122
     ],
     [
      76.36032,
      32.2713
     ],
     [
      76.36043,
      32.27141
     ],
     [
      76.36053,
      32.27148
     ],
     [
      76.36058,
      32.27155
     ],
     [
      76.36068,
      32.27173
     ],
     [
      76.36071,
      32.2718
     ],
     [
      76.36072,
      32.27189
     ],
     [
      76.36079,
      32.27195
     ],
     [
      76.36081,
      32.27201
     ],
     [
      76.36097,
      32.27219
     ],
     [
      76.3611,
      32.2723
     ],
     [
      76.36109,
      32.2724
     ],
     [
      76.36122,
      32.27268
     ],
     [
      76.36125,
      32.27278
     ],
     [
      76.36124,
      32.27287
     ],
     [
      76.36131,
      32.27296
     ],
     [
      76.36148,
      32.27308
     ],
     [
      76.36151,
      32.27316
     ],
     [
      76.36153,
      32.27326
     ],
     [
      76.36157,
      32.2734
     ],
     [
      76.36157,
      32.27343
     ],
     [
      76.36159,
      32.27372
     ],
     [
      76.36163,
      32.27384
     ],
     [
      76.36165,
      32.2739
     ],
     [
      76.36157,
      32.27401
     ],
     [
      76.36159,
      32.27409
     ],
     [
      76.36153,
      32.27417
     ]
    ]
   }
  },
  {
   "type": "Feature",
   "properties": {
    "name": "Snowline Cafe -> Laka Deep (pass)",
    "kind": "trail",
    "osm_id": "routed from OSM footpath network",
    "len_km": 0.93
   },
   "geometry": {
    "type": "LineString",
    "coordinates": [
     [
      76.36153,
      32.27417
     ],
     [
      76.36155,
      32.2742
     ],
     [
      76.36156,
      32.27423
     ],
     [
      76.36159,
      32.27427
     ],
     [
      76.36162,
      32.27433
     ],
     [
      76.36167,
      32.27439
     ],
     [
      76.36171,
      32.27449
     ],
     [
      76.36169,
      32.27456
     ],
     [
      76.36174,
      32.27466
     ],
     [
      76.36176,
      32.27476
     ],
     [
      76.36184,
      32.27488
     ],
     [
      76.36189,
      32.275
     ],
     [
      76.36195,
      32.27507
     ],
     [
      76.36193,
      32.27525
     ],
     [
      76.36187,
      32.27531
     ],
     [
      76.36185,
      32.27541
     ],
     [
      76.36182,
      32.27548
     ],
     [
      76.36182,
      32.27558
     ],
     [
      76.36179,
      32.27567
     ],
     [
      76.36187,
      32.27576
     ],
     [
      76.36193,
      32.27587
     ],
     [
      76.3619,
      32.27595
     ],
     [
      76.36184,
      32.27598
     ],
     [
      76.36184,
      32.2761
     ],
     [
      76.36188,
      32.27619
     ],
     [
      76.36189,
      32.27627
     ],
     [
      76.36189,
      32.27638
     ],
     [
      76.36199,
      32.27647
     ],
     [
      76.36214,
      32.27647
     ],
     [
      76.36221,
      32.27657
     ],
     [
      76.36226,
      32.27674
     ],
     [
      76.36229,
      32.27693
     ],
     [
      76.36231,
      32.27703
     ],
     [
      76.36235,
      32.27712
     ],
     [
      76.36239,
      32.27719
     ],
     [
      76.3624,
      32.27733
     ],
     [
      76.36239,
      32.2774
     ],
     [
      76.36246,
      32.27749
     ],
     [
      76.36249,
      32.27758
     ],
     [
      76.36251,
      32.27766
     ],
     [
      76.3625,
      32.27776
     ],
     [
      76.3625,
      32.27786
     ],
     [
      76.36251,
      32.27794
     ],
     [
      76.36254,
      32.27801
     ],
     [
      76.36256,
      32.2781
     ],
     [
      76.36254,
      32.27819
     ],
     [
      76.36257,
      32.2783
     ],
     [
      76.36253,
      32.27836
     ],
     [
      76.36255,
      32.27845
     ],
     [
      76.36249,
      32.27852
     ],
     [
      76.36249,
      32.27861
     ],
     [
      76.36246,
      32.27869
     ],
     [
      76.36248,
      32.27877
     ],
     [
      76.36254,
      32.27884
     ],
     [
      76.36261,
      32.27893
     ],
     [
      76.36271,
      32.27901
     ],
     [
      76.36282,
      32.27903
     ],
     [
      76.36287,
      32.2791
     ],
     [
      76.36296,
      32.27918
     ],
     [
      76.363,
      32.27926
     ],
     [
      76.36313,
      32.27933
     ],
     [
      76.36324,
      32.27945
     ],
     [
      76.36327,
      32.27954
     ],
     [
      76.36337,
      32.27962
     ],
     [
      76.36336,
      32.27966
     ],
     [
      76.36341,
      32.27979
     ],
     [
      76.36347,
      32.27992
     ],
     [
      76.36348,
      32.28002
     ],
     [
      76.36346,
      32.2801
     ],
     [
      76.36344,
      32.28017
     ],
     [
      76.36344,
      32.28027
     ],
     [
      76.36342,
      32.28035
     ],
     [
      76.36344,
      32.28046
     ],
     [
      76.36345,
      32.28069
     ],
     [
      76.36351,
      32.28088
     ],
     [
      76.36369,
      32.28116
     ],
     [
      76.36372,
      32.28129
     ],
     [
      76.36356,
      32.28135
     ],
     [
      76.36345,
      32.28139
     ],
     [
      76.36344,
      32.28153
     ]
    ]
   }
  },
  {
   "type": "Feature",
   "properties": {
    "name": "McLeod Ganj (town, road head)",
    "kind": "approach",
    "osm_id": "OSM node"
   },
   "geometry": {
    "type": "Point",
    "coordinates": [
     76.32624,
     32.23527
    ]
   }
  },
  {
   "type": "Feature",
   "properties": {
    "name": "Dharamkot",
    "kind": "approach",
    "osm_id": "OSM node"
   },
   "geometry": {
    "type": "Point",
    "coordinates": [
     76.326,
     32.24553
    ]
   }
  },
  {
   "type": "Feature",
   "properties": {
    "name": "Galu Devi Mandir (trailhead)",
    "kind": "trailhead",
    "osm_id": "OSM node"
   },
   "geometry": {
    "type": "Point",
    "coordinates": [
     76.3259,
     32.25459
    ]
   }
  },
  {
   "type": "Feature",
   "properties": {
    "name": "Magic View Cafe (midpoint)",
    "kind": "trail",
    "osm_id": "OSM node"
   },
   "geometry": {
    "type": "Point",
    "coordinates": [
     76.34275,
     32.25582
    ]
   }
  },
  {
   "type": "Feature",
   "properties": {
    "name": "Triund (ridge / campsites)",
    "kind": "camp",
    "osm_id": "OSM node"
   },
   "geometry": {
    "type": "Point",
    "coordinates": [
     76.35429,
     32.26218
    ]
   }
  },
  {
   "type": "Feature",
   "properties": {
    "name": "Triund Hill peak",
    "kind": "peak",
    "osm_id": "OSM node"
   },
   "geometry": {
    "type": "Point",
    "coordinates": [
     76.35287,
     32.27023
    ]
   }
  },
  {
   "type": "Feature",
   "properties": {
    "name": "Snowline Cafe",
    "kind": "camp",
    "osm_id": "OSM node"
   },
   "geometry": {
    "type": "Point",
    "coordinates": [
     76.36157,
     32.27414
    ]
   }
  },
  {
   "type": "Feature",
   "properties": {
    "name": "Laka Temple",
    "kind": "trail",
    "osm_id": "OSM node"
   },
   "geometry": {
    "type": "Point",
    "coordinates": [
     76.36193,
     32.27594
    ]
   }
  },
  {
   "type": "Feature",
   "properties": {
    "name": "Laka Deep (pass)",
    "kind": "pass",
    "osm_id": "OSM node"
   },
   "geometry": {
    "type": "Point",
    "coordinates": [
     76.36363,
     32.28161
    ]
   }
  },
  {
   "type": "Feature",
   "properties": {
    "name": "Ilaka",
    "kind": "trail",
    "osm_id": "OSM node"
   },
   "geometry": {
    "type": "Point",
    "coordinates": [
     76.36454,
     32.28216
    ]
   }
  },
  {
   "type": "Feature",
   "properties": {
    "name": "Indrahar Jot / Pass",
    "kind": "pass",
    "osm_id": "OSM node"
   },
   "geometry": {
    "type": "Point",
    "coordinates": [
     76.38126,
     32.29756
    ]
   }
  },
  {
   "type": "Feature",
   "properties": {
    "name": "Mun Peak",
    "kind": "peak",
    "osm_id": "OSM node"
   },
   "geometry": {
    "type": "Point",
    "coordinates": [
     76.39066,
     32.28749
    ]
   }
  }
 ]
}