<?xml version="1.0" encoding="UTF-8"?>
<kml xmlns="http://www.opengis.net/kml/2.2" xmlns:gx="http://www.google.com/kml/ext/2.2" xmlns:kml="http://www.opengis.net/kml/2.2" xmlns:atom="http://www.w3.org/2005/Atom">
<Document>
	<name>Vaishno_Devi_Bhavan_Overhang.kml</name>
	<StyleMap id="msn_ylw-pushpin">
		<Pair>
			<key>normal</key>
			<styleUrl>#sn_ylw-pushpin</styleUrl>
		</Pair>
		<Pair>
			<key>highlight</key>
			<styleUrl>#sh_ylw-pushpin</styleUrl>
		</Pair>
	</StyleMap>
	<Style id="sh_ylw-pushpin">
		<IconStyle>
			<scale>1.3</scale>
			<Icon>
				<href>http://maps.google.com/mapfiles/kml/pushpin/ylw-pushpin.png</href>
			</Icon>
			<hotSpot x="20" y="2" xunits="pixels" yunits="pixels"/>
		</IconStyle>
		<BalloonStyle>
		</BalloonStyle>
		<LineStyle>
			<color>ff55180d</color>
		</LineStyle>
		<PolyStyle>
			<color>4affffff</color>
		</PolyStyle>
	</Style>
	<Style id="sn_ylw-pushpin">
		<IconStyle>
			<scale>1.1</scale>
			<Icon>
				<href>http://maps.google.com/mapfiles/kml/pushpin/ylw-pushpin.png</href>
			</Icon>
			<hotSpot x="20" y="2" xunits="pixels" yunits="pixels"/>
		</IconStyle>
		<BalloonStyle>
		</BalloonStyle>
		<LineStyle>
			<color>ff55180d</color>
		</LineStyle>
		<PolyStyle>
			<color>4affffff</color>
		</PolyStyle>
	</Style>
	<Placemark>
		<name>Vaishno_Devi_Bhavan_Overhang</name>
		<description>Risky exposed rock formations above bhavan. Need tracking</description>
		<LookAt>
			<gx:TimeSpan>
				<begin>2026-02-14T23:59:59Z</begin>
				<end>2026-02-15</end>
			</gx:TimeSpan>
			<gx:ViewerOptions>
				<gx:option name="historicalimagery"></gx:option>
				<gx:option enabled="0" name="sunlight"></gx:option>
				<gx:option enabled="0" name="streetview"></gx:option>
			</gx:ViewerOptions>
			<longitude>74.95247305176032</longitude>
			<latitude>33.02625569536431</latitude>
			<altitude>0</altitude>
			<heading>97.22583737912015</heading>
			<tilt>52.75834102749263</tilt>
			<range>2758.682087074562</range>
			<gx:altitudeMode>relativeToSeaFloor</gx:altitudeMode>
		</LookAt>
		<styleUrl>#msn_ylw-pushpin</styleUrl>
		<Polygon>
			<tessellate>1</tessellate>
			<outerBoundaryIs>
				<LinearRing>
					<coordinates>
						74.95351395522323,33.03211795957593,0 74.95343766665239,33.03216356134651,0 74.95338831953211,33.03220756399558,0 74.95326574391852,33.03226581390881,0 74.95321757708609,33.03229539239313,0 74.95315274780504,33.03234207705405,0 74.95307565605751,33.03235830066364,0 74.95301885235318,33.03237486071151,0 74.95297653424973,33.0323935728187,0 74.95291935347484,33.03241275436127,0 74.95286687319162,33.03244687775488,0 74.95280617147272,33.03247966344047,0 74.9527454454082,33.03243574983809,0 74.95266990103443,33.03237812635049,0 74.9526015268283,33.03232171863166,0 74.95256698112743,33.03226507926394,0 74.95254362497114,33.03222432842815,0 74.95249423355452,33.0321566169846,0 74.95245305645827,33.03211588877554,0 74.95239191997341,33.03204910498399,0 74.95235549986624,33.03200906548023,0 74.95231036625287,33.03195613516537,0 74.95227832704323,33.03191667733345,0 74.95220845638686,33.03186544787567,0 74.95217553347128,33.03182584243316,0 74.95212410441309,33.03176020453716,0 74.95207972564884,33.03172155270056,0 74.95201711758325,33.03164262673535,0 74.95197078671195,33.03160367135516,0 74.95194373330825,33.03155037236424,0 74.95191595637588,33.03149692615141,0 74.95189855130991,33.03140163047289,0 74.95189384984175,33.03131957715342,0 74.95188140496802,33.03111116903539,0 74.95185722873343,33.03102643634595,0 74.95182952570227,33.03090000178544,0 74.95181874537091,33.03085765011009,0 74.9518080192059,33.03073033420548,0 74.9517396322133,33.03052059442819,0 74.95170100383147,33.03034847555599,0 74.95166244466314,33.03024732815193,0 74.95152639682578,33.03010176280582,0 74.95135164365129,33.02996759460606,0 74.95120798038027,33.02987635445178,0 74.95111083386358,33.02981536640505,0 74.95092073253736,33.02968045188641,0 74.95080425546415,33.02957859545319,0 74.9505496248354,33.02934666375232,0 74.95049670215617,33.02926022541681,0 74.95041656536137,33.0291324656738,0 74.95037637807427,33.02906237294446,0 74.95031916824252,33.02890743221321,0 74.95028260037967,33.02883765551545,0 74.95021506074242,33.02873975982746,0 74.95017375173674,33.02865517227323,0 74.95010149107749,33.02847444997958,0 74.95006975771085,33.02840531014865,0 74.95003651214492,33.02832216704132,0 74.95003076580721,33.02826584346442,0 74.95000901957987,33.0281966147242,0 74.94998744496199,33.02812739800158,0 74.9499636151952,33.02804413627114,0 74.94992077692403,33.02797641003591,0 74.94989757139979,33.02793558001935,0 74.94987438121183,33.0278947758871,0 74.94985909787935,33.0278388700474,0 74.94982257658992,33.02777109191381,0 74.94977101901189,33.02766226621993,0 74.94975110491117,33.02762143023784,0 74.94971254744357,33.02756799846637,0 74.94968798896303,33.02751331345691,0 74.94954181444585,33.02739707985424,0 74.94942566796315,33.0273357191076,0 74.9493048230774,33.02728949370192,0 74.94923334895019,33.02725364400704,0 74.9491286869133,33.027179220625,0 74.94908355219182,33.0271414331699,0 74.94904643022268,33.02703350528903,0 74.94903572150939,33.02699266291361,0 74.94901061969668,33.02689738353239,0 74.94898697289095,33.02681581427598,0 74.94897118385816,33.02676134814095,0 74.94893221104799,33.02669519668692,0 74.94890356121282,33.02664194692909,0 74.94886923551572,33.02657527989257,0 74.94883094382352,33.02652299363864,0 74.94876423345944,33.02648789108089,0 74.94879048931548,33.02642863564487,0 74.94880646237613,33.02637054940043,0 74.94885798900997,33.02628008110229,0 74.94888115567082,33.02624929998181,0 74.94891938383995,33.02614613480186,0 74.94895677311783,33.02607164240064,0 74.94896057272577,33.02600145473937,0 74.94897146615089,33.02595844479849,0 74.94899401451201,33.02585829330942,0 74.94903320178075,33.02579793005394,0 74.94909698266562,33.02567856188744,0 74.94916513129876,33.02561421041819,0 74.94924057017906,33.02547862616006,0 74.94927498003962,33.02543205901645,0 74.94933651592522,33.02532581449704,0 74.94937088467033,33.02527914708975,0 74.94943109028721,33.02520074785162,0 74.9494874109775,33.02513646185143,0 74.94952642279394,33.02508879005106,0 74.94956507055936,33.02502750858364,0 74.94963718256861,33.02493366392221,0 74.94966771720986,33.02486030804501,0 74.94968430453686,33.02477626751018,0 74.94969213049633,33.02473440098848,0 74.9497015916037,33.02466456404392,0 74.94973935920929,33.02460443653072,0 74.94974436374505,33.02454904422346,0 74.94974600212987,33.02449443184894,0 74.94973910526461,33.02446825317472,0 74.9497328840998,33.02438792129375,0 74.9497266794671,33.0243078495474,0 74.94971982445888,33.02428189009741,0 74.94971790698845,33.02416075959781,0 74.94973618769578,33.02410436750885,0 74.9497545761068,33.02400773922883,0 74.94975926255559,33.02395344755141,0 74.94977301160938,33.02387122575898,0 74.94977406723379,33.02377802683164,0 74.94978522549781,33.02371104486748,0 74.94980079475407,33.02361757233761,0 74.9498124957619,33.02353810980177,0 74.94980237638508,33.02346304415467,0 74.94980555857023,33.02337377434404,0 74.94981649688998,33.0233331438485,0 74.94985343612009,33.02326213811705,0 74.94987551084677,33.02320768507205,0 74.94988840318386,33.0231666917886,0 74.94992266343016,33.02309662251241,0 74.94998940206652,33.02302097849145,0 74.950028628879,33.02298694618012,0 74.95007464247269,33.02295103602518,0 74.95015009688447,33.0229085439075,0 74.95029921519389,33.02282041304702,0 74.95044932170113,33.02275846720654,0 74.95057590253603,33.02270118402566,0 74.95072309558371,33.02263785806348,0 74.95091520245023,33.02256340145881,0 74.95091449350674,33.02259442600657,0 74.95096879565564,33.02262797110691,0 74.95111599024708,33.02269931989665,0 74.9513916396122,33.02270401870529,0 74.95156790800866,33.02272214092521,0 74.95169548222239,33.02275390883285,0 74.95176941697714,33.02278377946562,0 74.95192874032972,33.02280956167278,0 74.95267437549481,33.02266682715373,0 74.95292329462947,33.02268970681174,0 74.95298296469809,33.02270869835756,0 74.95309933613628,33.02276320760795,0 74.95324957162565,33.02281135031404,0 74.95336982142878,33.02285028723428,0 74.95341706933739,33.0228886169207,0 74.95346474828722,33.02291130342041,0 74.95358147490937,33.0229688730705,0 74.95369829595752,33.02301110037151,0 74.9537443507748,33.02305017995632,0 74.95396855207065,33.02308946631619,0 74.95403880367442,33.02310901241837,0 74.95417178936073,33.02310265514827,0 74.95427855777302,33.02308520535258,0 74.95432050350239,33.02307839766947,0 74.95444716178663,33.02305781057852,0 74.95456655280846,33.02303889374237,0 74.95472651910599,33.02301354925792,0 74.95478814997222,33.02300368963996,0 74.95483350744287,33.02301215262232,0 74.95498316469586,33.02308277044258,0 74.95506355618146,33.0231331370108,0 74.9551373877956,33.02316903263608,0 74.95519511696908,33.02322334857185,0 74.95526928619208,33.0232594426358,0 74.95529826678653,33.023286693415,0 74.95537270050765,33.0233229320537,0 74.9554562913295,33.02338965476442,0 74.95556386887394,33.02345289496459,0 74.95567300788129,33.02351614121216,0 74.95573374275757,33.02357094086368,0 74.95588740039069,33.02364437188062,0 74.95596376898418,33.02368138262542,0 74.95608697159643,33.02371161053361,0 74.95618944516742,33.02376128522648,0 74.95626248416409,33.02379939298686,0 74.95636013010964,33.02385034257129,0 74.95645760185593,33.02391786073094,0 74.95652826546862,33.02395683324432,0 74.95659943657716,33.02399582343912,0 74.95660239795571,33.02401166122294,0 74.95669405052492,33.02403166666475,0 74.95683637060748,33.02409385408069,0 74.95692575955398,33.02413096316388,0 74.95705786781295,33.02421185818206,0 74.95713891442516,33.02425065911392,0 74.95722004270961,33.02428954768685,0 74.95728054643349,33.02433118185542,0 74.95738216918886,33.02438412512979,0 74.95746314982706,33.0244398355558,0 74.95760473065187,33.02450463009792,0 74.9577005657579,33.02455894684083,0 74.95780838420754,33.02464515224619,0 74.95794055851684,33.02467889794784,0 74.9580225651826,33.02475210897388,0 74.95809641733705,33.02475995709586,0 74.95823769721591,33.02480976154209,0 74.95839534180513,33.02487447113685,0 74.95846709297325,33.02489939517597,0 74.95854235010333,33.02490730781108,0 74.95863320417359,33.02493012546526,0 74.9587398204969,33.0249678764686,0 74.95877990533519,33.02496326802637,0 74.95885123197618,33.02498847753785,0 74.95902682756235,33.02503515643445,0 74.95917138744463,33.02506881352027,0 74.95925574111922,33.02507598129844,0 74.95939740707202,33.02511026602961,0 74.95945458915213,33.02513739697118,0 74.95965751965871,33.02519871776821,0 74.95969293370574,33.02522841014255,0 74.95982293449208,33.02524771661505,0 74.95994743772009,33.02528458691437,0 74.96007297673231,33.02532148973813,0 74.96020317864254,33.02535804409508,0 74.96029081065687,33.02538241426171,0 74.96038769604073,33.02540587228221,0 74.9604861384789,33.0254292618383,0 74.9605565398811,33.02545570014489,0 74.96072096734559,33.02552327452833,0 74.96089373669498,33.0255733731863,0 74.96103594776542,33.02564392667562,0 74.96115648449958,33.02564885448032,0 74.96130256625494,33.02570260500029,0 74.96141432242405,33.02576000942509,0 74.96156330438457,33.02581427855694,0 74.96172664852253,33.02585043766863,0 74.96183325382991,33.02592660551991,0 74.96199977877272,33.02599778759297,0 74.96207351043638,33.02606033150806,0 74.9622241894977,33.02613396391221,0 74.96226653295274,33.02619975532369,0 74.96245052150928,33.02625426967683,0 74.96250363690932,33.02631968513868,0 74.96263393455094,33.02639682008456,0 74.96269766155201,33.02647940249364,0 74.96275862915546,33.0265448554884,0 74.96274609490872,33.0266156485743,0 74.96286795781354,33.02669452826333,0 74.96285216774692,33.02678303375168,0 74.96291166745188,33.02683154719274,0 74.96297046806164,33.02689776372905,0 74.96302437081044,33.0270345255123,0 74.96301986929933,33.0270873298817,0 74.96307834343989,33.02717144937337,0 74.9631323811212,33.0273085367855,0 74.96312631825285,33.02737888199186,0 74.96325137944731,33.02746001914586,0 74.96330964941193,33.02756238514021,0 74.96337261160809,33.02764722036203,0 74.96353185038841,33.02772843960968,0 74.96362402278064,33.0278483817222,0 74.96370917934851,33.02796894034765,0 74.96371415498149,33.02802183553229,0 74.96381372399048,33.02812488460761,0 74.96383121993991,33.02819536297746,0 74.96388862267521,33.0283184367485,0 74.96405862625812,33.02840406822781,0 74.96414490168559,33.02851003944865,0 74.96487259385241,33.02857684791681,0 74.96595013715964,33.0286450657753,0 74.96626776293634,33.0287572277735,0 74.96684654203598,33.02881334300385,0 74.96731780688552,33.02892866022376,0 74.96734038581135,33.02900603775479,0 74.96717906592541,33.02910266373607,0 74.96726507944084,33.029199769043,0 74.96715005488088,33.02925760933178,0 74.96707176408135,33.0293348124188,0 74.96603362716486,33.02932344378549,0 74.96385770699708,33.02933344674248,0 74.96335420296361,33.02935460302838,0 74.96326556283941,33.02937347447504,0 74.9629267919096,33.02937961859041,0 74.96277880650909,33.02938303898544,0 74.96259646220398,33.02935312513365,0 74.96251033124854,33.02930340156261,0 74.96244901058358,33.02921857030663,0 74.96240161942448,33.02916821826822,0 74.96237340073841,33.0290826006875,0 74.96228660709828,33.02899941792738,0 74.96228192342357,33.02898234569402,0 74.96212376422771,33.02886783883708,0 74.96204121425535,33.02880231952081,0 74.96195878205653,33.02873699015046,0 74.96184076860006,33.02865626601628,0 74.9617642643903,33.02860826648033,0 74.96162572450906,33.02854631861558,0 74.96154516276786,33.0284649701268,0 74.96147463243274,33.02841742386631,0 74.9613944778791,33.02833645300983,0 74.96131941945896,33.02827243713219,0 74.96123942029489,33.02819187547325,0 74.96116348282717,33.02812823064877,0 74.96109302624851,33.02808140277375,0 74.96096321246215,33.02802130197285,0 74.96086641979512,33.027976399058,0 74.96072829781176,33.02788366769264,0 74.96063609361809,33.02783905844115,0 74.96053838071794,33.02781231473673,0 74.96041685069727,33.02782048078178,0 74.96024345379379,33.02781542757265,0 74.96015520794039,33.02785474094639,0 74.96006378499663,33.02787754220483,0 74.95993707601379,33.02790218302464,0 74.95983355201814,33.02794157602019,0 74.95975385304635,33.02796288479801,0 74.95959810582205,33.02802156124801,0 74.95945761510353,33.02806133254255,0 74.95938282026336,33.0280649631876,0 74.9591306620198,33.02810878332246,0 74.95867999075764,33.02813903292595,0 74.95840315838392,33.02816535587679,0 74.95820928442107,33.02820554822839,0 74.95809272523597,33.02824204361812,0 74.95784752652325,33.02831458648032,0 74.95776293904315,33.02835001821633,0 74.95772629069292,33.02840132331185,0 74.95768829340038,33.02845264000077,0 74.95767932244375,33.02848597788838,0 74.95765687244955,33.02856941355922,0 74.95764338732451,33.0286195363339,0 74.95762198443128,33.02866972490882,0 74.9576228006534,33.02876779233447,0 74.95757977541953,33.02881923767115,0 74.95756591850171,33.028901929212,0 74.9575226464104,33.02896762892922,0 74.95741246195388,33.02903516581619,0 74.95738327816568,33.02909941069252,0 74.95729098659284,33.02913314371703,0 74.95716045823245,33.02919962819925,0 74.9570492960749,33.02925067809065,0 74.95698262494248,33.02933310338722,0 74.95687868572375,33.02936712033178,0 74.95676681676186,33.02941607768705,0 74.95672913174771,33.02946378196318,0 74.95661042200527,33.02951204667177,0 74.95655971685792,33.02957724765886,0 74.95649222250206,33.0296417833701,0 74.95637451874734,33.02970447447331,0 74.95637280754632,33.02975281991032,0 74.9563008957237,33.02981834590118,0 74.95627803572206,33.02986748563413,0 74.9562323043954,33.02996579862506,0 74.95621795221176,33.02999862525167,0 74.95614969366439,33.03008080406175,0 74.95606322801385,33.03019374803672,0 74.95604134213079,33.03024293864947,0 74.95606643894307,33.03031175561582,0 74.95608826234204,33.03038061225811,0 74.95600084701935,33.0304465609722,0 74.95586618546847,33.03047538312362,0 74.95586613195458,33.03059389399653,0 74.95555700847947,33.03064141453848,0 74.9553329106103,33.03072940521148,0 74.95524557379788,33.03077485591497,0 74.95518577887256,33.03080758982084,0 74.95508013532969,33.03087000196324,0 74.95502448224994,33.03093430489936,0 74.95497285733282,33.03096747473349,0 74.95490104712445,33.03103021587692,0 74.95483472796624,33.03107660657066,0 74.95482209079726,33.03112572136483,0 74.95473988831137,33.03120608884588,0 74.9547101065438,33.03125575149211,0 74.95466957954849,33.03132341771218,0 74.95464593170473,33.03137156265593,0 74.95456600019833,33.03139921924652,0 74.95448111316888,33.03144295666941,0 74.95438800353899,33.0315169645796,0 74.95437392182137,33.03153221935055,0 74.95424599153075,33.0315874700339,0 74.95419876019078,33.03166830654398,0 74.9541720732182,33.03173488582937,0 74.95417277515018,33.03180246981131,0 74.95418873079272,33.03187214042258,0 74.95418886385433,33.03192556234549,0 74.95440888527081,33.03202224078855,0 74.95450860405988,33.03210949475928,0 74.95421869101465,33.03208388903023,0 74.95420351537395,33.03210418297023,0 74.95418075122114,33.03217776659319,0 74.95406171863176,33.03220892373537,0 74.95402639681788,33.03222652943496,0 74.9539230268208,33.03223982059154,0 74.95384202636056,33.03228511769968,0 74.9538019766147,33.03229922476907,0 74.95363652794863,33.03232302838865,0 74.95353268596352,33.03231852728675,0 74.95343905687272,33.03231552706934,0 74.95331411512623,33.032327572135,0 74.95327446123912,33.03232707319091,0 74.95314479174048,33.03232659811734,0 74.95307565605751,33.03235830066364,0 74.95300677878845,33.03237574708583,0 74.95298263793202,33.03237751918643,0 74.95351395522323,33.03211795957593,0 
					</coordinates>
				</LinearRing>
			</outerBoundaryIs>
		</Polygon>
		<atom:link rel="app" href="https://www.google.com/earth/about/versions/#earth-pro" title="Google Earth Pro 7.3.7.1155"></atom:link>
	</Placemark>
</Document>
</kml>
