{
  "type": "FeatureCollection",
  "note": "Vaishno Devi route ground truth from the GSI Preliminary Note on the 26.08.2025 Ardhkuwari disaster: 1 dated fatal event + 39 GSI-surveyed instability locations (DMS, Table-7.1) along Tarakot-Adhkuwari, Bhawan-Sanjichat-Adhkuwari, Himkoti Marg and Banganga-Adhkuwari. CAVEATS for scoring: points hug the track corridor (corridor-biased inventory, like Ramban's NH-44 set) and most are GSI-assessed VULNERABLE spots (incl. observed old failures), not all occurred slides. Every feature carrying a 'date' feeds the temporal back-test. 2026-07-07: +1 user_observed_vulnerable_location (Bhavan overhang, polygon in Research/Vaishno_Devi_Watchlist/) \u2014 lower evidentiary grade than the GSI points; filter by 'type' if a GSI-only score is wanted. 2026-07-11: +3 dated events (2008 Bhawan rockfall [GSI Spl.Pub.107 \u00a75.4.4 \u2014 source-internal Aug/Dec date discrepancy, flagged], 2016 Bhawan complex failure [SMVDSB/THDCIL records], 21 Jul 2025 Banganga [press-verified, 3+ outlets]). EXCLUDED after verification: the '2 Sep 2025 new-track rockfall, 3 dead' claim from a deep-research synthesis \u2014 no press/GSI trace, and the yatra was closed 26 Aug-14 Sep 2025; treated as fabricated (see RESULTS_AND_KPIS \u00a738).",
  "features": [
    {
      "type": "Feature",
      "properties": {
        "name": "Ardhkuwari landslide disaster (Inderprastha Bhojnalaya)",
        "type": "event_2025",
        "date": "2025-08-26",
        "time_local": "~15:00 IST",
        "casualties": 32,
        "injured": 20,
        "coord_confidence": "anchored_to_gsi_slope_nos_110_111 (per the note: slopes around the incident were pre-flagged as Nos. 110, 111, 115, 117)",
        "source": "GSI, 'A preliminary note on the landslide disaster of 26.08.2025 at Ardhkuwari on the Vaishno Devi Yatra Route' (29.08.2025), pp.1-3"
      },
      "geometry": {
        "type": "Point",
        "coordinates": [
          74.941791,
          33.008764
        ]
      }
    },
    {
      "type": "Feature",
      "properties": {
        "name": "Banganga (Gulshan Ka Langar) landslide, old track",
        "type": "event_2025",
        "date": "2025-07-21",
        "time_local": "~08:30 IST",
        "casualties": 1,
        "injured": 9,
        "trigger": "heavy rain \u2014 Katra recorded 184.2 mm in the 24 h ending 08:30 IST 21 Jul 2025 (press)",
        "failure_type": "Landslide/boulder fall onto the old track (booking office + overhead iron structure caved in)",
        "coord_confidence": "anchored to Banganga locality on the old track (settlement-level, not GPS-precise)",
        "source": "Press-verified 2026-07-11 across 3+ independent outlets (Kashmir Reader, The Kashmir Horizon, Greater Jammu, Deccan Herald; articles 21-22 Jul 2025) \u2014 date, casualties and the 184.2 mm/24 h figure consistent"
      },
      "geometry": {
        "type": "Point",
        "coordinates": [
          74.9493,
          32.9887
        ]
      }
    },
    {
      "type": "Feature",
      "properties": {
        "name": "Bhawan rockfall at track km 11.550 (wedge failure)",
        "type": "event_2008",
        "date": "2008-08-30",
        "time_local": "11:00 IST",
        "casualties": 1,
        "injured": 6,
        "date_confidence": "SOURCE-INTERNAL DISCREPANCY: the GSI Spl.Pub.107 \u00a75.4.4 BODY says 30 Aug 2008 at 11:00 hrs (adopted \u2014 more specific); the section HEADING says 30 Dec 2008. Resolve via Kumar (2009a) before drawing any temporal conclusion from this event.",
        "failure_type": "Rockfall by wedge failure in dolomitic limestone/cherty dolomite; source in the inaccessible escarpment >400 m above the heavily-inhabited foot-slope; bedding shear zone facilitated failure",
        "coord_confidence": "anchored to the Bhawan complex (event at track km 11.550, foot-slope approaching the Shrine and Bhairon track)",
        "source": "GSI Spl.Pub.107 \u00a75.4.4 (p.127; page image read 2026-07-11) citing Kumar (2009a)"
      },
      "geometry": {
        "type": "Point",
        "coordinates": [
          74.9482,
          33.0299
        ]
      }
    },
    {
      "type": "Feature",
      "properties": {
        "name": "Bhawan complex slope failure (track between elevator point and gate 5)",
        "type": "event_2016",
        "date": "2016-03-12",
        "time_local": "~13:30 IST",
        "trigger": "heavy and continuous rain (per the primary source)",
        "failure_type": "Rain-triggered landsliding damaging the track; aged Durga Bhawan building dismantled; slope subsequently stabilized (37 pre-stressed cable anchors, 26.5\u201330.5 m)",
        "coord_confidence": "anchored to the Bhawan complex",
        "source": "PRIMARY-VERIFIED 2026-07-11: Naithani AK (2023) 'Assessment of the Various Slope Stabilization Initiatives...', Aspects Min Miner Sci AMMS.000775 p.6 (PDF in Research/Vaishno_Devi_Watchlist/); see RESULTS_AND_KPIS \u00a734/\u00a739"
      },
      "geometry": {
        "type": "Point",
        "coordinates": [
          74.9482,
          33.0299
        ]
      }
    },
    {
      "type": "Feature",
      "properties": {
        "name": "GSI loc 2 \u2014 Tarakot-Adhkuwari track",
        "type": "gsi_vulnerable_location",
        "failure_type": "Debris",
        "coord_confidence": "gsi_dms_survey",
        "source": "GSI, 'A preliminary note on the landslide disaster of 26.08.2025 at Ardhkuwari on the Vaishno Devi Yatra Route' (29.08.2025), Table-7.1"
      },
      "geometry": {
        "type": "Point",
        "coordinates": [
          74.941528,
          33.009167
        ]
      }
    },
    {
      "type": "Feature",
      "properties": {
        "name": "GSI loc 3 \u2014 Tarakot-Adhkuwari track",
        "type": "gsi_vulnerable_location",
        "failure_type": "Cut face",
        "coord_confidence": "gsi_dms_survey",
        "source": "GSI, 'A preliminary note on the landslide disaster of 26.08.2025 at Ardhkuwari on the Vaishno Devi Yatra Route' (29.08.2025), Table-7.1"
      },
      "geometry": {
        "type": "Point",
        "coordinates": [
          74.940361,
          33.009917
        ]
      }
    },
    {
      "type": "Feature",
      "properties": {
        "name": "GSI loc 7 \u2014 Tarakot-Adhkuwari track",
        "type": "gsi_vulnerable_location",
        "failure_type": "Rockfall zone",
        "coord_confidence": "gsi_dms_survey",
        "source": "GSI, 'A preliminary note on the landslide disaster of 26.08.2025 at Ardhkuwari on the Vaishno Devi Yatra Route' (29.08.2025), Table-7.1"
      },
      "geometry": {
        "type": "Point",
        "coordinates": [
          74.938861,
          33.010944
        ]
      }
    },
    {
      "type": "Feature",
      "properties": {
        "name": "GSI loc 9 \u2014 Tarakot-Adhkuwari track",
        "type": "gsi_vulnerable_location",
        "failure_type": "Slope vulnerable for rock slide",
        "coord_confidence": "gsi_dms_survey",
        "source": "GSI, 'A preliminary note on the landslide disaster of 26.08.2025 at Ardhkuwari on the Vaishno Devi Yatra Route' (29.08.2025), Table-7.1"
      },
      "geometry": {
        "type": "Point",
        "coordinates": [
          74.938306,
          33.0115
        ]
      }
    },
    {
      "type": "Feature",
      "properties": {
        "name": "GSI loc 12 \u2014 Tarakot-Adhkuwari track",
        "type": "gsi_vulnerable_location",
        "failure_type": "Rock slide",
        "coord_confidence": "gsi_dms_survey",
        "source": "GSI, 'A preliminary note on the landslide disaster of 26.08.2025 at Ardhkuwari on the Vaishno Devi Yatra Route' (29.08.2025), Table-7.1"
      },
      "geometry": {
        "type": "Point",
        "coordinates": [
          74.934778,
          33.010917
        ]
      }
    },
    {
      "type": "Feature",
      "properties": {
        "name": "GSI loc 15 \u2014 Tarakot-Adhkuwari track",
        "type": "gsi_vulnerable_location",
        "failure_type": "Cut face on left bank of nala",
        "coord_confidence": "gsi_dms_survey",
        "source": "GSI, 'A preliminary note on the landslide disaster of 26.08.2025 at Ardhkuwari on the Vaishno Devi Yatra Route' (29.08.2025), Table-7.1"
      },
      "geometry": {
        "type": "Point",
        "coordinates": [
          74.938167,
          33.010556
        ]
      }
    },
    {
      "type": "Feature",
      "properties": {
        "name": "GSI loc 22 \u2014 Tarakot-Adhkuwari track",
        "type": "gsi_vulnerable_location",
        "failure_type": "Rockfall zone",
        "coord_confidence": "gsi_dms_survey",
        "source": "GSI, 'A preliminary note on the landslide disaster of 26.08.2025 at Ardhkuwari on the Vaishno Devi Yatra Route' (29.08.2025), Table-7.1"
      },
      "geometry": {
        "type": "Point",
        "coordinates": [
          74.940667,
          33.006722
        ]
      }
    },
    {
      "type": "Feature",
      "properties": {
        "name": "GSI loc 41 \u2014 Tarakot-Adhkuwari track",
        "type": "gsi_vulnerable_location",
        "failure_type": "Detached boulder prone to slide (dimension 3x3.5 m approx.)",
        "coord_confidence": "gsi_dms_survey",
        "source": "GSI, 'A preliminary note on the landslide disaster of 26.08.2025 at Ardhkuwari on the Vaishno Devi Yatra Route' (29.08.2025), Table-7.1"
      },
      "geometry": {
        "type": "Point",
        "coordinates": [
          74.925417,
          33.000778
        ]
      }
    },
    {
      "type": "Feature",
      "properties": {
        "name": "GSI loc 34 to 35 \u2014 Tarakot-Adhkuwari track",
        "type": "gsi_vulnerable_location",
        "failure_type": "Rockfall zone",
        "coord_confidence": "gsi_dms_survey",
        "source": "GSI, 'A preliminary note on the landslide disaster of 26.08.2025 at Ardhkuwari on the Vaishno Devi Yatra Route' (29.08.2025), Table-7.1"
      },
      "geometry": {
        "type": "Point",
        "coordinates": [
          74.931361,
          33.004972
        ]
      }
    },
    {
      "type": "Feature",
      "properties": {
        "name": "GSI loc 35A \u2014 Tarakot-Adhkuwari track",
        "type": "gsi_vulnerable_location",
        "failure_type": "Cracks and Subsidence",
        "coord_confidence": "gsi_dms_survey",
        "source": "GSI, 'A preliminary note on the landslide disaster of 26.08.2025 at Ardhkuwari on the Vaishno Devi Yatra Route' (29.08.2025), Table-7.1"
      },
      "geometry": {
        "type": "Point",
        "coordinates": [
          74.931594,
          33.004244
        ]
      }
    },
    {
      "type": "Feature",
      "properties": {
        "name": "GSI loc 46 \u2014 Tarakot-Adhkuwari track",
        "type": "gsi_vulnerable_location",
        "failure_type": "Detached boulder prone to slide (dimension 4x3 m approx.)",
        "coord_confidence": "gsi_dms_survey",
        "source": "GSI, 'A preliminary note on the landslide disaster of 26.08.2025 at Ardhkuwari on the Vaishno Devi Yatra Route' (29.08.2025), Table-7.1"
      },
      "geometry": {
        "type": "Point",
        "coordinates": [
          74.927917,
          33.000333
        ]
      }
    },
    {
      "type": "Feature",
      "properties": {
        "name": "GSI loc 48 to 48 A \u2014 Tarakot-Adhkuwari track",
        "type": "gsi_vulnerable_location",
        "failure_type": "Open cracks in the compacted scree making the slope forming material vulnerable to fall.",
        "coord_confidence": "gsi_dms_survey",
        "source": "GSI, 'A preliminary note on the landslide disaster of 26.08.2025 at Ardhkuwari on the Vaishno Devi Yatra Route' (29.08.2025), Table-7.1"
      },
      "geometry": {
        "type": "Point",
        "coordinates": [
          74.927917,
          33.001028
        ]
      }
    },
    {
      "type": "Feature",
      "properties": {
        "name": "GSI loc 49A \u2014 Tarakot-Adhkuwari track",
        "type": "gsi_vulnerable_location",
        "failure_type": "Cut face/rock slide",
        "coord_confidence": "gsi_dms_survey",
        "source": "GSI, 'A preliminary note on the landslide disaster of 26.08.2025 at Ardhkuwari on the Vaishno Devi Yatra Route' (29.08.2025), Table-7.1"
      },
      "geometry": {
        "type": "Point",
        "coordinates": [
          74.929472,
          33.000778
        ]
      }
    },
    {
      "type": "Feature",
      "properties": {
        "name": "GSI loc 52 \u2014 Bhawan-Sanjichat-Adhkuwari",
        "type": "gsi_vulnerable_location",
        "failure_type": "Vulnerable to planar and wedge failure",
        "coord_confidence": "gsi_dms_survey",
        "source": "GSI, 'A preliminary note on the landslide disaster of 26.08.2025 at Ardhkuwari on the Vaishno Devi Yatra Route' (29.08.2025), Table-7.1"
      },
      "geometry": {
        "type": "Point",
        "coordinates": [
          74.94525,
          33.027917
        ]
      }
    },
    {
      "type": "Feature",
      "properties": {
        "name": "GSI loc 55 \u2014 Bhawan-Sanjichat-Adhkuwari",
        "type": "gsi_vulnerable_location",
        "failure_type": "Planar along some joint and many wedges",
        "coord_confidence": "gsi_dms_survey",
        "source": "GSI, 'A preliminary note on the landslide disaster of 26.08.2025 at Ardhkuwari on the Vaishno Devi Yatra Route' (29.08.2025), Table-7.1"
      },
      "geometry": {
        "type": "Point",
        "coordinates": [
          74.945389,
          33.02675
        ]
      }
    },
    {
      "type": "Feature",
      "properties": {
        "name": "GSI loc 57 \u2014 Bhawan-Sanjichat-Adhkuwari",
        "type": "gsi_vulnerable_location",
        "failure_type": "Planar failure",
        "coord_confidence": "gsi_dms_survey",
        "source": "GSI, 'A preliminary note on the landslide disaster of 26.08.2025 at Ardhkuwari on the Vaishno Devi Yatra Route' (29.08.2025), Table-7.1"
      },
      "geometry": {
        "type": "Point",
        "coordinates": [
          74.944056,
          33.026472
        ]
      }
    },
    {
      "type": "Feature",
      "properties": {
        "name": "GSI loc 59 \u2014 Bhawan-Sanjichat-Adhkuwari",
        "type": "gsi_vulnerable_location",
        "failure_type": "Old planar failure",
        "coord_confidence": "gsi_dms_survey",
        "source": "GSI, 'A preliminary note on the landslide disaster of 26.08.2025 at Ardhkuwari on the Vaishno Devi Yatra Route' (29.08.2025), Table-7.1"
      },
      "geometry": {
        "type": "Point",
        "coordinates": [
          74.941611,
          33.024806
        ]
      }
    },
    {
      "type": "Feature",
      "properties": {
        "name": "GSI loc 60 \u2014 Bhawan-Sanjichat-Adhkuwari",
        "type": "gsi_vulnerable_location",
        "failure_type": "Rockfall/shooting stone area",
        "coord_confidence": "gsi_dms_survey",
        "source": "GSI, 'A preliminary note on the landslide disaster of 26.08.2025 at Ardhkuwari on the Vaishno Devi Yatra Route' (29.08.2025), Table-7.1"
      },
      "geometry": {
        "type": "Point",
        "coordinates": [
          74.939611,
          33.022833
        ]
      }
    },
    {
      "type": "Feature",
      "properties": {
        "name": "GSI loc 62 \u2014 Bhawan-Sanjichat-Adhkuwari",
        "type": "gsi_vulnerable_location",
        "failure_type": "Shooting stone zone",
        "coord_confidence": "gsi_dms_survey",
        "source": "GSI, 'A preliminary note on the landslide disaster of 26.08.2025 at Ardhkuwari on the Vaishno Devi Yatra Route' (29.08.2025), Table-7.1"
      },
      "geometry": {
        "type": "Point",
        "coordinates": [
          74.938278,
          33.021056
        ]
      }
    },
    {
      "type": "Feature",
      "properties": {
        "name": "GSI loc 65 \u2014 Bhawan-Sanjichat-Adhkuwari",
        "type": "gsi_vulnerable_location",
        "failure_type": "Topple /wedge",
        "coord_confidence": "gsi_dms_survey",
        "source": "GSI, 'A preliminary note on the landslide disaster of 26.08.2025 at Ardhkuwari on the Vaishno Devi Yatra Route' (29.08.2025), Table-7.1"
      },
      "geometry": {
        "type": "Point",
        "coordinates": [
          74.937806,
          33.018333
        ]
      }
    },
    {
      "type": "Feature",
      "properties": {
        "name": "GSI loc 70 \u2014 Bhawan-Sanjichat-Adhkuwari",
        "type": "gsi_vulnerable_location",
        "failure_type": "Planar/wedge",
        "coord_confidence": "gsi_dms_survey",
        "source": "GSI, 'A preliminary note on the landslide disaster of 26.08.2025 at Ardhkuwari on the Vaishno Devi Yatra Route' (29.08.2025), Table-7.1"
      },
      "geometry": {
        "type": "Point",
        "coordinates": [
          74.941333,
          33.013417
        ]
      }
    },
    {
      "type": "Feature",
      "properties": {
        "name": "GSI loc 77 \u2014 Bhawan-Adhkuwari (Himkoti Marg)",
        "type": "gsi_vulnerable_location",
        "failure_type": "Old planar failure",
        "coord_confidence": "gsi_dms_survey",
        "source": "GSI, 'A preliminary note on the landslide disaster of 26.08.2025 at Ardhkuwari on the Vaishno Devi Yatra Route' (29.08.2025), Table-7.1"
      },
      "geometry": {
        "type": "Point",
        "coordinates": [
          74.942722,
          33.026083
        ]
      }
    },
    {
      "type": "Feature",
      "properties": {
        "name": "GSI loc 78 \u2014 Bhawan-Adhkuwari (Himkoti Marg)",
        "type": "gsi_vulnerable_location",
        "failure_type": "Old planar failure",
        "coord_confidence": "gsi_dms_survey",
        "source": "GSI, 'A preliminary note on the landslide disaster of 26.08.2025 at Ardhkuwari on the Vaishno Devi Yatra Route' (29.08.2025), Table-7.1"
      },
      "geometry": {
        "type": "Point",
        "coordinates": [
          74.942528,
          33.026417
        ]
      }
    },
    {
      "type": "Feature",
      "properties": {
        "name": "GSI loc 80 \u2014 Bhawan-Adhkuwari (Himkoti Marg)",
        "type": "gsi_vulnerable_location",
        "failure_type": "Wedge failure",
        "coord_confidence": "gsi_dms_survey",
        "source": "GSI, 'A preliminary note on the landslide disaster of 26.08.2025 at Ardhkuwari on the Vaishno Devi Yatra Route' (29.08.2025), Table-7.1"
      },
      "geometry": {
        "type": "Point",
        "coordinates": [
          74.942028,
          33.026556
        ]
      }
    },
    {
      "type": "Feature",
      "properties": {
        "name": "GSI loc 81 \u2014 Bhawan-Adhkuwari (Himkoti Marg)",
        "type": "gsi_vulnerable_location",
        "failure_type": "Shooting stone zone",
        "coord_confidence": "gsi_dms_survey",
        "source": "GSI, 'A preliminary note on the landslide disaster of 26.08.2025 at Ardhkuwari on the Vaishno Devi Yatra Route' (29.08.2025), Table-7.1"
      },
      "geometry": {
        "type": "Point",
        "coordinates": [
          74.941083,
          33.02525
        ]
      }
    },
    {
      "type": "Feature",
      "properties": {
        "name": "GSI loc 82 \u2014 Bhawan-Adhkuwari (Himkoti Marg)",
        "type": "gsi_vulnerable_location",
        "failure_type": "Shooting stone zone",
        "coord_confidence": "gsi_dms_survey",
        "source": "GSI, 'A preliminary note on the landslide disaster of 26.08.2025 at Ardhkuwari on the Vaishno Devi Yatra Route' (29.08.2025), Table-7.1"
      },
      "geometry": {
        "type": "Point",
        "coordinates": [
          74.9405,
          33.02425
        ]
      }
    },
    {
      "type": "Feature",
      "properties": {
        "name": "GSI loc 87 \u2014 Bhawan-Adhkuwari (Himkoti Marg)",
        "type": "gsi_vulnerable_location",
        "failure_type": "Planar",
        "coord_confidence": "gsi_dms_survey",
        "source": "GSI, 'A preliminary note on the landslide disaster of 26.08.2025 at Ardhkuwari on the Vaishno Devi Yatra Route' (29.08.2025), Table-7.1"
      },
      "geometry": {
        "type": "Point",
        "coordinates": [
          74.934944,
          33.020944
        ]
      }
    },
    {
      "type": "Feature",
      "properties": {
        "name": "GSI loc 91 \u2014 Bhawan-Adhkuwari (Himkoti Marg)",
        "type": "gsi_vulnerable_location",
        "failure_type": "Planar/Wedge",
        "coord_confidence": "gsi_dms_survey",
        "source": "GSI, 'A preliminary note on the landslide disaster of 26.08.2025 at Ardhkuwari on the Vaishno Devi Yatra Route' (29.08.2025), Table-7.1"
      },
      "geometry": {
        "type": "Point",
        "coordinates": [
          74.931333,
          33.019583
        ]
      }
    },
    {
      "type": "Feature",
      "properties": {
        "name": "GSI loc 99 \u2014 Bhawan-Adhkuwari (Himkoti Marg)",
        "type": "gsi_vulnerable_location",
        "failure_type": "Overhang",
        "coord_confidence": "gsi_dms_survey",
        "source": "GSI, 'A preliminary note on the landslide disaster of 26.08.2025 at Ardhkuwari on the Vaishno Devi Yatra Route' (29.08.2025), Table-7.1"
      },
      "geometry": {
        "type": "Point",
        "coordinates": [
          74.933394,
          33.014389
        ]
      }
    },
    {
      "type": "Feature",
      "properties": {
        "name": "GSI loc 104 \u2014 Bhawan-Adhkuwari (Himkoti Marg)",
        "type": "gsi_vulnerable_location",
        "failure_type": "Planar",
        "coord_confidence": "gsi_dms_survey",
        "source": "GSI, 'A preliminary note on the landslide disaster of 26.08.2025 at Ardhkuwari on the Vaishno Devi Yatra Route' (29.08.2025), Table-7.1"
      },
      "geometry": {
        "type": "Point",
        "coordinates": [
          74.938528,
          33.012389
        ]
      }
    },
    {
      "type": "Feature",
      "properties": {
        "name": "GSI loc 106 \u2014 Bhawan-Adhkuwari (Himkoti Marg)",
        "type": "gsi_vulnerable_location",
        "failure_type": "Wedge failure",
        "coord_confidence": "gsi_dms_survey",
        "source": "GSI, 'A preliminary note on the landslide disaster of 26.08.2025 at Ardhkuwari on the Vaishno Devi Yatra Route' (29.08.2025), Table-7.1"
      },
      "geometry": {
        "type": "Point",
        "coordinates": [
          74.939528,
          33.011306
        ]
      }
    },
    {
      "type": "Feature",
      "properties": {
        "name": "GSI loc 110 \u2014 Bhawan-Adhkuwari (Himkoti Marg)",
        "type": "gsi_vulnerable_location",
        "failure_type": "Rockfall",
        "coord_confidence": "gsi_dms_survey",
        "source": "GSI, 'A preliminary note on the landslide disaster of 26.08.2025 at Ardhkuwari on the Vaishno Devi Yatra Route' (29.08.2025), Table-7.1"
      },
      "geometry": {
        "type": "Point",
        "coordinates": [
          74.941694,
          33.008972
        ]
      }
    },
    {
      "type": "Feature",
      "properties": {
        "name": "GSI loc 111 \u2014 Bhawan-Adhkuwari (Himkoti Marg)",
        "type": "gsi_vulnerable_location",
        "failure_type": "Planar/Wedge",
        "coord_confidence": "gsi_dms_survey",
        "source": "GSI, 'A preliminary note on the landslide disaster of 26.08.2025 at Ardhkuwari on the Vaishno Devi Yatra Route' (29.08.2025), Table-7.1"
      },
      "geometry": {
        "type": "Point",
        "coordinates": [
          74.941889,
          33.008556
        ]
      }
    },
    {
      "type": "Feature",
      "properties": {
        "name": "GSI loc 115 \u2014 Banganga-Adhkuwari track",
        "type": "gsi_vulnerable_location",
        "failure_type": "Planar",
        "coord_confidence": "gsi_dms_survey",
        "source": "GSI, 'A preliminary note on the landslide disaster of 26.08.2025 at Ardhkuwari on the Vaishno Devi Yatra Route' (29.08.2025), Table-7.1"
      },
      "geometry": {
        "type": "Point",
        "coordinates": [
          74.944333,
          33.006722
        ]
      }
    },
    {
      "type": "Feature",
      "properties": {
        "name": "GSI loc 117 \u2014 Banganga-Adhkuwari track",
        "type": "gsi_vulnerable_location",
        "failure_type": "Planar/Wedge (Highly shattered rockmass)",
        "coord_confidence": "gsi_dms_survey",
        "source": "GSI, 'A preliminary note on the landslide disaster of 26.08.2025 at Ardhkuwari on the Vaishno Devi Yatra Route' (29.08.2025), Table-7.1"
      },
      "geometry": {
        "type": "Point",
        "coordinates": [
          74.942861,
          33.007694
        ]
      }
    },
    {
      "type": "Feature",
      "properties": {
        "name": "GSI loc 118 \u2014 Banganga-Adhkuwari track",
        "type": "gsi_vulnerable_location",
        "failure_type": "Shooting stone area",
        "coord_confidence": "gsi_dms_survey",
        "source": "GSI, 'A preliminary note on the landslide disaster of 26.08.2025 at Ardhkuwari on the Vaishno Devi Yatra Route' (29.08.2025), Table-7.1"
      },
      "geometry": {
        "type": "Point",
        "coordinates": [
          74.947639,
          33.005611
        ]
      }
    },
    {
      "type": "Feature",
      "properties": {
        "name": "GSI loc 119 \u2014 Banganga-Adhkuwari track",
        "type": "gsi_vulnerable_location",
        "failure_type": "Rockfall",
        "coord_confidence": "gsi_dms_survey",
        "source": "GSI, 'A preliminary note on the landslide disaster of 26.08.2025 at Ardhkuwari on the Vaishno Devi Yatra Route' (29.08.2025), Table-7.1"
      },
      "geometry": {
        "type": "Point",
        "coordinates": [
          74.949722,
          33.006694
        ]
      }
    },
    {
      "type": "Feature",
      "properties": {
        "name": "GSI loc 120 \u2014 Banganga-Adhkuwari track",
        "type": "gsi_vulnerable_location",
        "failure_type": "Rock slide vulnerable zone",
        "coord_confidence": "gsi_dms_survey",
        "source": "GSI, 'A preliminary note on the landslide disaster of 26.08.2025 at Ardhkuwari on the Vaishno Devi Yatra Route' (29.08.2025), Table-7.1"
      },
      "geometry": {
        "type": "Point",
        "coordinates": [
          74.947694,
          33.004833
        ]
      }
    },
    {
      "type": "Feature",
      "properties": {
        "name": "GSI loc 121 \u2014 Banganga-Adhkuwari track",
        "type": "gsi_vulnerable_location",
        "failure_type": "Debris slide",
        "coord_confidence": "gsi_dms_survey",
        "source": "GSI, 'A preliminary note on the landslide disaster of 26.08.2025 at Ardhkuwari on the Vaishno Devi Yatra Route' (29.08.2025), Table-7.1"
      },
      "geometry": {
        "type": "Point",
        "coordinates": [
          74.9465,
          32.999861
        ]
      }
    },
    {
      "type": "Feature",
      "properties": {
        "name": "GSI loc 122 \u2014 Banganga-Adhkuwari track",
        "type": "gsi_vulnerable_location",
        "failure_type": "Debris slide",
        "coord_confidence": "gsi_dms_survey",
        "source": "GSI, 'A preliminary note on the landslide disaster of 26.08.2025 at Ardhkuwari on the Vaishno Devi Yatra Route' (29.08.2025), Table-7.1"
      },
      "geometry": {
        "type": "Point",
        "coordinates": [
          74.942333,
          32.998139
        ]
      }
    },
    {
      "type": "Feature",
      "properties": {
        "name": "Himkoti track RD 0/850 \u2014 GSI-assessed unstable slope (pilgrim-casualty history)",
        "type": "gsi_vulnerable_location",
        "failure_type": "Wedge/topple in highly jointed cherty dolomite; dip-slope discontinuities (J2 daylights); slope ~67\u00b0, damage corridor 30\u201350 m, boulders 0.5\u20132 m (design case 5 m); rain-seepage lubrication mechanism",
        "history": "Instability 'in recent past which lead to casualty to pilgrims' \u2014 event UNDATED in the source (pre-30.06.2017, the SMVDSB request letter date), so recorded as a vulnerable location, NOT a dated event (per the date-verification rule)",
        "coord_confidence": "gsi_report_dms (33\u00b001'47.5\"N 74\u00b056'08\"E, stated in the report)",
        "source": "GSI open-file report FS 2017-18, 'Landslide and Slope Stability Assessment of Shri Mata Vaishno Devi Himkoti Track' (Singh, Rana & Jungral), Item M4-LS/NC/NR/SU-JK/2017/12224 (PDF in Research/Vaishno_Devi_Watchlist/); RESULTS_AND_KPIS \u00a739"
      },
      "geometry": {
        "type": "Point",
        "coordinates": [
          74.935556,
          33.029861
        ]
      }
    },
    {
      "type": "Feature",
      "properties": {
        "name": "Bhavan overhang \u2014 exposed formation above the shrine complex",
        "type": "user_observed_vulnerable_location",
        "failure_type": "Overhanging exposed rock formation (brittle/rockfall class \u2014 no creep expected)",
        "coord_confidence": "centroid of the user-drawn 0.81 km2 polygon (Research/Vaishno_Devi_Watchlist/Vaishno_Devi_Bhavan_Overhang.kml)",
        "source": "Field observation by project owner in Google Earth Pro, 2026-07-07; product stats: polygon_stats bhawan_overhang (FS_sat 0.8, slope max 61 deg, 108/127 px WATCH-class, no 2-track creep, monsoon zone 177 m)"
      },
      "geometry": {
        "type": "Point",
        "coordinates": [
          74.955488,
          33.027498
        ]
      }
    }
  ]
}